{
"type": "FeatureCollection",
"name": "InternationalBoundary",
"crs": { "type": "name", "properties": { "name": "urn:ogc:def:crs:OGC:1.3:CRS84" } },
"features": [
{ "type": "Feature", "properties": { }, "geometry": { "type": "MultiLineString", "coordinates": [ [ [ -97.397822835999875, 25.865812479999967 ], [ -97.399476481999884, 25.861161601000081 ], [ -97.399889892999923, 25.85511545900005 ], [ -97.404179036999935, 25.851394756000104 ] ], [ [ -97.365990152999956, 25.84390167300004 ], [ -97.376015381999892, 25.846743877000023 ], [ -97.380123657999945, 25.853203431000107 ], [ -97.383120890999933, 25.860541484000059 ], [ -97.389890503999936, 25.865657451000061 ], [ -97.397822835999875, 25.865812479999967 ] ], [ [ -97.328447224999948, 25.933301900000075 ], [ -97.351107340999874, 25.918419088000096 ], [ -97.355112263999899, 25.912786357 ], [ -97.352270060999928, 25.894492899000081 ], [ -97.345164550999868, 25.871703593000092 ], [ -97.345732991999938, 25.852221578000094 ], [ -97.365990152999956, 25.84390167300004 ] ], [ [ -97.310980590999932, 25.922088114000065 ], [ -97.328447224999948, 25.933301900000075 ] ], [ [ -97.253051309999918, 25.963480937 ], [ -97.266357991999911, 25.960638733000017 ], [ -97.269200194999982, 25.944360657000079 ], [ -97.287648681999912, 25.928651021000089 ], [ -97.310980590999932, 25.922088114000065 ] ], [ [ -97.204940551999869, 25.960638733000017 ], [ -97.253051309999918, 25.963480937 ] ], [ [ -97.139267461999978, 25.965827043000132 ], [ -97.204940551999869, 25.960638733000017 ] ], [ [ -97.802010050999883, 26.06373321500006 ], [ -97.878181111999936, 26.06373321500006 ], [ -97.941665609999944, 26.056808574000065 ] ], [ [ -97.404179036999935, 25.851394756000104 ], [ -97.425418050999866, 25.854857076000094 ], [ -97.435727498999967, 25.869274801000067 ], [ -97.441308553999889, 25.88493276000008 ], [ -97.448259033000014, 25.892322490000105 ], [ -97.469420532999962, 25.89294260700003 ], [ -97.486318725999922, 25.895733134000036 ], [ -97.502209228999845, 25.901882630000017 ], [ -97.520270141999859, 25.912786357 ], [ -97.565176961999853, 25.954747620000088 ], [ -97.594322468999891, 25.966374818000151 ], [ -97.604786946999909, 25.979965719000013 ], [ -97.613055177, 25.995985413000106 ], [ -97.62264115499994, 26.009059550000085 ], [ -97.641451374999932, 26.022495423000052 ], [ -97.659874023999933, 26.0306602990001 ], [ -97.679614420999968, 26.034639385000098 ], [ -97.766947590999862, 26.039651998000053 ], [ -97.780305948999924, 26.043217672000093 ], [ -97.782321329999903, 26.058617249000068 ], [ -97.802010050999883, 26.06373321500006 ] ], [ [ -97.999233153999853, 26.064301656000019 ], [ -98.013056599999928, 26.063681539000097 ], [ -98.044165812999893, 26.048798726000108 ], [ -98.065456503, 26.042184143000018 ] ], [ [ -97.941665609999944, 26.056808574000065 ], [ -97.999233153999853, 26.064301656000019 ] ], [ [ -98.103102783999944, 26.074947000999973 ], [ -98.150231689999885, 26.063681539000097 ] ], [ [ -98.065456503, 26.042184143000018 ], [ -98.075145833999869, 26.046628317000035 ], [ -98.083310710999939, 26.07091624000012 ], [ -98.103102783999944, 26.074947000999973 ] ], [ [ -98.45654374199988, 26.225945536000097 ], [ -98.472382568999933, 26.207652079000077 ] ], [ [ -98.150231689999885, 26.063681539000097 ], [ -98.185061604999888, 26.065231832000059 ], [ -98.222656209999869, 26.075412089 ], [ -98.300429240999961, 26.111430562000066 ], [ -98.309808512999922, 26.121094056000025 ], [ -98.333037069, 26.153030090000065 ], [ -98.339264078999875, 26.159851380000045 ], [ -98.365774088999913, 26.160161438000053 ], [ -98.377272094999896, 26.163572083000091 ], [ -98.377272094999896, 26.173648987000082 ], [ -98.369339762999957, 26.194009502000057 ], [ -98.397193359999889, 26.201140849000126 ], [ -98.428845174999864, 26.217728984000082 ], [ -98.45654374199988, 26.225945536000097 ] ], [ [ -98.581626545999953, 26.262274068 ], [ -98.640563517999908, 26.241810201000089 ] ], [ [ -98.472382568999933, 26.207652079000077 ], [ -98.492949788999979, 26.230596414999983 ], [ -98.521526855999866, 26.240931702000026 ], [ -98.552791096999925, 26.248321431000139 ], [ -98.581626545999953, 26.262274068 ] ], [ [ -98.726217203999866, 26.304390360000074 ], [ -98.73991145899997, 26.30325347900007 ] ], [ [ -98.640563517999908, 26.241810201000089 ], [ -98.653663492999911, 26.24429067000009 ], [ -98.664696411999898, 26.25064687100004 ], [ -98.685289469999859, 26.268475240000036 ], [ -98.69332515499984, 26.270542298000091 ], [ -98.702239338999888, 26.271627503000033 ], [ -98.704254720999984, 26.276640117 ], [ -98.691464803999878, 26.290231019000068 ], [ -98.701412517, 26.299119365000177 ], [ -98.713168904999819, 26.303356833000116 ], [ -98.726217203999866, 26.304390360000074 ] ], [ [ -98.870213581999977, 26.372138163000038 ], [ -98.893028727999919, 26.367849020000047 ] ], [ [ -98.85083492099993, 26.364076640000125 ], [ -98.860524251999905, 26.366298727000085 ], [ -98.870213581999977, 26.372138163000038 ] ], [ [ -98.836081298999915, 26.372138163000038 ], [ -98.842334147999836, 26.365833639000066 ], [ -98.85083492099993, 26.364076640000125 ] ], [ [ -98.825022542999918, 26.366453756000087 ], [ -98.836081298999915, 26.372138163000038 ] ], [ [ -98.810294759999934, 26.372448222000056 ], [ -98.817322753999875, 26.368520813000032 ], [ -98.825022542999918, 26.366453756000087 ] ], [ [ -98.73991145899997, 26.30325347900007 ], [ -98.735932372999883, 26.320048320000101 ], [ -98.746396850999901, 26.332140605000074 ], [ -98.780839192999878, 26.351674296000038 ], [ -98.795851196999934, 26.368314108000064 ], [ -98.801328898999927, 26.372138163000038 ], [ -98.810294759999934, 26.372448222000056 ] ], [ [ -98.929899861999829, 26.392240295000057 ], [ -98.945376953999912, 26.378287659000019 ] ], [ [ -98.893028727999919, 26.367849020000047 ], [ -98.929899861999829, 26.392240295000057 ] ], [ [ -98.986950643999975, 26.400095114000017 ], [ -99.004055541999904, 26.393842265000092 ], [ -99.010515096, 26.392602031000148 ] ], [ [ -98.945376953999912, 26.378287659000019 ], [ -98.954136108999947, 26.393945618000132 ], [ -98.962843587999927, 26.399526673000057 ], [ -98.986950643999975, 26.400095114000017 ] ], [ [ -99.04764461299996, 26.406968079000045 ], [ -99.066351480999913, 26.404745993 ] ], [ [ -99.010515096, 26.392602031000148 ], [ -99.016432047999871, 26.394462383000029 ], [ -99.022994954999987, 26.403350729000039 ], [ -99.027878377999883, 26.406244609000083 ], [ -99.04764461299996, 26.406968079000045 ] ], [ [ -99.60016902699995, 27.646427307000103 ], [ -99.612442178999856, 27.643636780000097 ], [ -99.633526163999889, 27.633068950000055 ], [ -99.644869140999873, 27.632733052000095 ] ], [ [ -99.066351480999913, 26.404745993 ], [ -99.085497599999982, 26.407639872000033 ], [ -99.106426554999899, 26.423039450000115 ], [ -99.108907023999905, 26.434253235000014 ], [ -99.102524983999814, 26.446965637000108 ], [ -99.093739990999936, 26.459781393000053 ], [ -99.089373332999841, 26.471150208000065 ], [ -99.091492065999944, 26.484017639000065 ], [ -99.102990071999926, 26.512077942000069 ], [ -99.115108194999934, 26.525617167000064 ], [ -99.140946410999874, 26.531404928000065 ], [ -99.164872599999896, 26.54044830300008 ], [ -99.171280476999911, 26.563961080000041 ], [ -99.178385986999857, 26.613673808000026 ], [ -99.181124837999903, 26.629900208 ], [ -99.221354939999969, 26.735733541000084 ], [ -99.234093179999903, 26.783637594000069 ], [ -99.24827836199988, 26.827097473000038 ], [ -99.262799438999878, 26.844047343000071 ], [ -99.279671793999896, 26.859653625000011 ], [ -99.293960327999898, 26.87629343700004 ], [ -99.325973877999857, 26.911536763000079 ], [ -99.33698095699998, 26.924765930000071 ], [ -99.376849324999881, 26.953756409000015 ], [ -99.386176920999887, 26.962231344000081 ], [ -99.390362711999842, 26.973135071000073 ], [ -99.39015600599987, 26.993598938000073 ], [ -99.392791504999877, 27.00476104800002 ], [ -99.399328572999863, 27.012667542000127 ], [ -99.407312581999875, 27.014527893 ], [ -99.416045898999982, 27.014889627999978 ], [ -99.42465002500002, 27.017886862000072 ], [ -99.439868733999958, 27.028945618000165 ], [ -99.443744467000016, 27.034578349000054 ], [ -99.461727864999915, 27.056954244 ], [ -99.442039143999935, 27.089613749000108 ], [ -99.439403645999931, 27.098347067000127 ], [ -99.44141902699991, 27.107493795000082 ], [ -99.445734008999949, 27.114728496 ], [ -99.450178182999963, 27.120464579000021 ], [ -99.452451945999897, 27.125012106000074 ], [ -99.450333211999876, 27.14516591400006 ], [ -99.435786295999932, 27.18841908800006 ], [ -99.431988077999875, 27.207591044000043 ], [ -99.434029297999899, 27.226969706000101 ], [ -99.440902262999927, 27.244798075000098 ], [ -99.451831827999854, 27.261179504000076 ], [ -99.466120361999955, 27.276527405000085 ], [ -99.468962565999931, 27.278232727000049 ], [ -99.48040889499994, 27.283297018 ], [ -99.482941039999915, 27.28670766300003 ], [ -99.484878906999896, 27.294820862000101 ], [ -99.48658422899986, 27.297611389000011 ], [ -99.493198811999946, 27.301280416 ], [ -99.521362468, 27.311253967000141 ], [ -99.514799560999862, 27.321795960000067 ], [ -99.497591308999887, 27.338797506000066 ], [ -99.494025634999943, 27.348202617000069 ], [ -99.492888753999935, 27.358847961000013 ], [ -99.487721110999871, 27.371870422000121 ], [ -99.484620523999837, 27.391765849000077 ], [ -99.475706339999903, 27.414761862000052 ], [ -99.472915812999886, 27.42664744100005 ], [ -99.473639281999937, 27.463802796000042 ], [ -99.472915812999886, 27.468298645000111 ], [ -99.476429809999857, 27.482509664000105 ], [ -99.48040889499994, 27.490777893000093 ], [ -99.488289551999841, 27.494653626000055 ], [ -99.503689128999909, 27.495583802 ], [ -99.509502726999926, 27.500027974000087 ], [ -99.510071166999879, 27.510518291000047 ], [ -99.507073935, 27.533436788000103 ], [ -99.507203124999862, 27.573770244000031 ], [ -99.515006265999929, 27.588601380000142 ], [ -99.535030883999852, 27.604827779000104 ], [ -99.555029662999942, 27.613509420000049 ], [ -99.572263753999962, 27.618470358000049 ], [ -99.578232381999896, 27.622811178000116 ], [ -99.590247151999861, 27.642060649000104 ], [ -99.60016902699995, 27.646427307000103 ] ], [ [ -99.664738729999897, 27.659398092000053 ], [ -99.700369629999855, 27.659191386000074 ] ], [ [ -99.644869140999873, 27.632733052000095 ], [ -99.648641519999885, 27.636918843000061 ], [ -99.658692585999844, 27.65402374300001 ], [ -99.664738729999897, 27.659398092000053 ] ], [ [ -103.241755534999868, 29.003502096000126 ], [ -103.301545166999858, 29.002365214000015 ] ], [ [ -103.147988647999924, 28.985105286000071 ], [ -103.187107706999925, 28.990221253000076 ], [ -103.241755534999868, 29.003502096000126 ] ], [ [ -103.309994262999879, 29.031174825000011 ], [ -103.324799560999864, 29.026808167000013 ], [ -103.330483968999914, 29.02373341900002 ] ], [ [ -103.301545166999858, 29.002365214000015 ], [ -103.3162471119999, 29.010065002000143 ], [ -103.3115144759999, 29.026042538000013 ], [ -103.309994262999879, 29.031174825000011 ] ], [ [ -103.342602091999922, 29.041225892000082 ], [ -103.351671305999886, 29.039417217000079 ], [ -103.360533813999865, 29.029831238000124 ], [ -103.37208349699992, 29.02373341900002 ] ], [ [ -103.330483968999914, 29.02373341900002 ], [ -103.342602091999922, 29.041225892000082 ] ], [ [ -103.095356201999948, 29.060294495000026 ], [ -103.104683797999954, 29.05786570200009 ], [ -103.109205484999862, 29.02337168400004 ], [ -103.122770548999895, 28.996474101000082 ], [ -103.147988647999924, 28.985105286000071 ] ], [ [ -103.09153214499986, 29.05786570200009 ], [ -103.095356201999948, 29.060294495000026 ] ], [ [ -103.558015299999937, 29.156205953000022 ], [ -103.584990396999885, 29.15465566000006 ] ], [ [ -103.37208349699992, 29.02373341900002 ], [ -103.386630411999846, 29.028797709999964 ], [ -103.414639037999876, 29.052413839000049 ], [ -103.423604899999916, 29.05786570200009 ], [ -103.435697184999881, 29.061121318000122 ], [ -103.478536946999824, 29.082050273000046 ], [ -103.529748291999866, 29.126776225 ], [ -103.535587727999967, 29.135121969000096 ], [ -103.538223226999975, 29.142408345000071 ], [ -103.541711385999918, 29.148816224000104 ], [ -103.55023799699994, 29.15465566000006 ], [ -103.558015299999937, 29.156205953000022 ] ], [ [ -102.969756632999889, 29.192844543000117 ], [ -102.988385986999859, 29.177134908000138 ], [ -103.015826171999919, 29.126776225 ], [ -103.024275268999958, 29.116156717999985 ], [ -103.032621012999854, 29.110213927999979 ], [ -103.072541055999906, 29.091403707000076 ], [ -103.08075760999985, 29.085202536000043 ], [ -103.085589355999872, 29.075719910000032 ], [ -103.09153214499986, 29.05786570200009 ] ], [ [ -102.947535766999849, 29.182018331000034 ], [ -102.969756632999889, 29.192844543000117 ] ], [ [ -102.859866699999912, 29.361154683000063 ], [ -102.864956827999961, 29.359526876000103 ], [ -102.876971598999944, 29.350871073000093 ], [ -102.883069417999948, 29.343765564000051 ], [ -102.885188151999969, 29.333378601000042 ], [ -102.885498209999881, 29.31480092400005 ], [ -102.899399169999853, 29.276095276 ], [ -102.899709228999967, 29.263899638000083 ], [ -102.892138630999895, 29.254391175000148 ], [ -102.867954060999949, 29.240386862000037 ], [ -102.858781493999857, 29.229147237000081 ], [ -102.869866088999899, 29.224780579000083 ], [ -102.89689286299992, 29.220284730000014 ], [ -102.942264770999941, 29.190209046000028 ], [ -102.947535766999849, 29.182018331000034 ] ], [ [ -102.853872233999937, 29.360999655000072 ], [ -102.859866699999912, 29.361154683000063 ] ], [ [ -104.292750813999902, 29.53282379200008 ], [ -104.320604411999938, 29.532255351000121 ], [ -104.338484456999893, 29.524012960000064 ] ], [ [ -103.584990396999885, 29.15465566000006 ], [ -103.673124552999909, 29.173569235000013 ], [ -103.702476766999879, 29.187857768000097 ], [ -103.749476481999864, 29.222971904000079 ], [ -103.759062459999939, 29.226847637000038 ], [ -103.77076717199995, 29.229844869000111 ], [ -103.77771765199995, 29.235296733000062 ], [ -103.769423584999871, 29.257543437000038 ], [ -103.774229492999908, 29.2675169890001 ], [ -103.783660441999942, 29.274803365000075 ], [ -103.794176595999929, 29.277593893000091 ], [ -103.864120646999908, 29.281366272 ], [ -103.928121907999937, 29.293019308000098 ], [ -104.019149943999949, 29.320330303 ], [ -104.057312988999925, 29.339037171000072 ], [ -104.105423746999875, 29.385675150000058 ], [ -104.139788573999908, 29.400583802000089 ], [ -104.161647705999968, 29.416758525 ], [ -104.194513916, 29.448927104000049 ], [ -104.212290608999893, 29.484661357000054 ], [ -104.218698486999955, 29.489829 ], [ -104.227147583999852, 29.493032938999985 ], [ -104.251022094999925, 29.508587545000058 ], [ -104.267170979999946, 29.52657094300006 ], [ -104.292750813999902, 29.53282379200008 ] ], [ [ -101.233919433999858, 29.6226632690001 ], [ -101.258775797999903, 29.620156962000067 ], [ -101.283580484999874, 29.607806295000053 ], [ -101.300969604999892, 29.594137878000076 ] ], [ [ -99.700369629999855, 27.659191386000074 ], [ -99.705692301999932, 27.663170471000061 ], [ -99.710673654999908, 27.670116197000088 ], [ -99.723055582999905, 27.687380880000052 ], [ -99.730652018999905, 27.691825053000059 ], [ -99.734036824999905, 27.702031148000021 ], [ -99.736310587999924, 27.713606669000011 ], [ -99.740444702999923, 27.722159119000082 ], [ -99.747343506, 27.726009013 ], [ -99.765197713999939, 27.731176657000077 ], [ -99.774576986, 27.735827535000052 ], [ -99.78685013899991, 27.74848826100018 ], [ -99.795428426999919, 27.761924134000051 ], [ -99.806962776999896, 27.771423010000092 ], [ -99.808166666999853, 27.772414449000085 ], [ -99.832919677999953, 27.776755269000052 ], [ -99.832971354999927, 27.782181295000072 ], [ -99.84477941899992, 27.793575949000029 ], [ -99.858241129999911, 27.80352366200005 ], [ -99.863357097000019, 27.804660543000054 ], [ -99.864726522999945, 27.814324036000102 ], [ -99.861858479999924, 27.836079814000026 ], [ -99.863357097000019, 27.845665792000162 ], [ -99.870927693999974, 27.854476624000178 ], [ -99.88020361399991, 27.859230856 ], [ -99.888006754999878, 27.864811910000018 ], [ -99.891288208999853, 27.876025696000024 ], [ -99.882684082999916, 27.891580302000101 ], [ -99.878808349999858, 27.90183807400004 ], [ -99.881340495999936, 27.90646311500009 ], [ -99.896765909999928, 27.912922669000075 ], [ -99.914335896999987, 27.928244731000042 ], [ -99.929916341999899, 27.946331482000083 ], [ -99.93968318799989, 27.961085104000102 ], [ -99.928288533999932, 27.975761210000101 ], [ -99.940716715999855, 27.983254293000165 ], [ -99.961852376999857, 27.987491760000093 ], [ -99.976605997999869, 27.992452698000093 ], [ -99.99112707599987, 28.007800599000102 ], [ -100.000583862999846, 28.020409647999966 ], [ -100.007456827999974, 28.033561300000045 ], [ -100.014123087999835, 28.050459493000105 ], [ -100.013502970999909, 28.056970724000067 ], [ -100.010505737999935, 28.063611145000085 ], [ -100.010195678999921, 28.068882141000092 ], [ -100.017585408999935, 28.070949199000047 ], [ -100.031538045999895, 28.081801250000076 ], [ -100.045077270999883, 28.095288799000109 ], [ -100.048022826999897, 28.102523499000117 ], [ -100.048901326999868, 28.115959371000077 ], [ -100.056497761999964, 28.137921855000076 ], [ -100.074894572999924, 28.15440663700009 ], [ -100.172873087999875, 28.198538310000053 ], [ -100.189202839999865, 28.20132883800007 ], [ -100.197626098999876, 28.207168274000026 ], [ -100.20119177299992, 28.22034576400004 ], [ -100.202948771999857, 28.23442759200006 ], [ -100.205946004999944, 28.242876689000095 ], [ -100.212818969999972, 28.245072938000025 ], [ -100.240724243999878, 28.249697978000064 ], [ -100.257932494999935, 28.260524191000059 ], [ -100.275089071999858, 28.277241516000075 ], [ -100.284339152999848, 28.296516825 ], [ -100.277931274999929, 28.314887797000022 ], [ -100.278551391999855, 28.331088359000059 ], [ -100.293899291999949, 28.353412577000128 ], [ -100.322631388999852, 28.386898906000152 ], [ -100.331674764999875, 28.422013041000024 ], [ -100.336325643999857, 28.45857411700003 ], [ -100.340201375999911, 28.464258525 ], [ -100.348314575999893, 28.470252991000056 ], [ -100.355549275999905, 28.478185323 ], [ -100.35678951099996, 28.48932159500001 ], [ -100.351621867999896, 28.496711325000035 ], [ -100.322631388999852, 28.510405579000036 ], [ -100.364024210999872, 28.524797465000063 ], [ -100.384229695999935, 28.537173971000019 ], [ -100.397768920999837, 28.557586162000057 ], [ -100.398750773999936, 28.568644918000054 ], [ -100.397097127999942, 28.592726135000156 ], [ -100.401437947999909, 28.602260437000037 ], [ -100.411463175999941, 28.609314270000112 ], [ -100.43482092299989, 28.619132793000073 ], [ -100.446189738999905, 28.626496684000056 ], [ -100.444897826999878, 28.643782450000032 ], [ -100.481381388999893, 28.68605377300004 ], [ -100.493938761999885, 28.708377991 ], [ -100.519053507999871, 28.804961243 ], [ -100.524996297999863, 28.814831441000113 ], [ -100.529285441999875, 28.819947408000019 ], [ -100.534453084999939, 28.830231018000084 ], [ -100.538638876, 28.835631205000062 ], [ -100.545150105999952, 28.838990174000038 ], [ -100.559671183999868, 28.83937774700005 ], [ -100.566234090999885, 28.842504171000105 ], [ -100.569696410999882, 28.849609681000057 ], [ -100.56334021099984, 28.862089539000142 ], [ -100.566234090999885, 28.869789326999978 ], [ -100.571763468999833, 28.873199972000016 ], [ -100.586542927999872, 28.879788716999972 ], [ -100.589540161999864, 28.88345774300014 ], [ -100.594966186999883, 28.899322408000035 ], [ -100.606955119999924, 28.910122782000087 ], [ -100.618840698999918, 28.917925924000066 ], [ -100.6243184, 28.924721375 ], [ -100.624783488, 28.937769674000048 ], [ -100.626695515999856, 28.94833750400009 ], [ -100.630777954999886, 28.956683248 ], [ -100.637909301999954, 28.96288442000013 ], [ -100.628917602999906, 28.984330140000047 ], [ -100.63279333499996, 29.005155742000031 ], [ -100.652223673999899, 29.044817404000057 ], [ -100.660853637999963, 29.102669169000052 ], [ -100.668966837999847, 29.116208394000047 ], [ -100.678165242999881, 29.119412334000017 ], [ -100.690825968999903, 29.121014303000042 ], [ -100.702039754999916, 29.123649800000134 ], [ -100.70684566299991, 29.130186870000038 ], [ -100.709739542999856, 29.135561218000074 ], [ -100.762501181, 29.173775939999981 ], [ -100.770097617, 29.187289327000041 ], [ -100.762087768999933, 29.20865753200005 ], [ -100.783171753999881, 29.243074036 ], [ -100.796142537999913, 29.257672628000105 ], [ -100.816089640999834, 29.270772604000026 ], [ -100.863890340999973, 29.290616353 ], [ -100.871796834999984, 29.296455791000167 ], [ -100.891227172999905, 29.318547465000027 ], [ -100.91473994999987, 29.337047628000025 ], [ -100.987397013999853, 29.366322327000042 ], [ -100.998300740999952, 29.372471822000108 ], [ -101.008067585999925, 29.380585023 ], [ -101.016232462999881, 29.390067648000109 ], [ -101.022175252999887, 29.400480448999954 ], [ -101.025947632, 29.414355571000094 ], [ -101.02961665899997, 29.442984315000057 ], [ -101.037781535999841, 29.460063375000054 ], [ -101.067960571999947, 29.469494324000088 ], [ -101.134778197999964, 29.487658590000038 ], [ -101.16356197199984, 29.501301168000072 ], [ -101.182708088999874, 29.522359314000063 ], [ -101.191415567999954, 29.528147075000064 ], [ -101.201776692999928, 29.530653382000096 ], [ -101.212861287999971, 29.531583558000133 ], [ -101.22278316299996, 29.540781962000054 ], [ -101.226478027999974, 29.55445037800002 ], [ -101.217770548999894, 29.584190165000056 ], [ -101.219010782999945, 29.610286764000055 ], [ -101.233919433999858, 29.6226632690001 ] ], [ [ -101.309780435999897, 29.654547628 ], [ -101.336238769999881, 29.654315084000078 ] ], [ [ -101.300969604999892, 29.594137878000076 ], [ -101.31215755199996, 29.597858581000121 ], [ -101.310865641999854, 29.612767233000053 ], [ -101.302726603999929, 29.633851217000078 ], [ -101.301072957999935, 29.649509176000091 ], [ -101.309780435999897, 29.654547628 ] ], [ [ -102.676053629999956, 29.744490458000051 ], [ -102.683469197999912, 29.743715312000024 ], [ -102.691039794999867, 29.73681650800005 ], [ -102.693623618000018, 29.729400940000094 ], [ -102.694708821999953, 29.72061594700012 ], [ -102.697757731999914, 29.709557190000112 ], [ -102.72674820999984, 29.664495341000109 ], [ -102.731269897999951, 29.650594381000037 ], [ -102.735507364999975, 29.649509176000091 ], [ -102.751656249999954, 29.622456564000132 ], [ -102.751759602999897, 29.620156962000067 ], [ -102.761345580999929, 29.603413798000012 ], [ -102.76759842999985, 29.597290141000073 ], [ -102.779664876999888, 29.592303366000149 ], [ -102.774083821999966, 29.579616801000078 ], [ -102.776460937999929, 29.575947774000095 ], [ -102.785891886999963, 29.571813660000011 ], [ -102.780750081999926, 29.55824859700008 ], [ -102.786512003999889, 29.550497131000064 ], [ -102.79547786499991, 29.544270122000096 ], [ -102.827310547999929, 29.470502014000125 ], [ -102.833950968999957, 29.461355286000071 ], [ -102.839066935999853, 29.451950175000064 ], [ -102.8411339929999, 29.438307597000033 ], [ -102.838705200999883, 29.426938782000118 ], [ -102.834984497999926, 29.415699158000077 ], [ -102.835191202999894, 29.403839417000114 ], [ -102.844544636999927, 29.390532736000129 ], [ -102.84557816600001, 29.384719137 ], [ -102.838033406999884, 29.370533956000038 ], [ -102.8376716719999, 29.366322327000042 ], [ -102.846560018999924, 29.361748963000064 ], [ -102.853872233999937, 29.360999655000072 ] ], [ [ -102.638743245999962, 29.743715312000024 ], [ -102.676053629999956, 29.744490458000051 ] ], [ [ -102.566757975999863, 29.771052144000056 ], [ -102.585309814999832, 29.764695944000021 ], [ -102.621224934999958, 29.747280986000163 ], [ -102.638743245999962, 29.743715312000024 ] ], [ [ -102.553141235999959, 29.756737773000136 ], [ -102.558308879999942, 29.759089050000053 ], [ -102.562882242999905, 29.769346822 ], [ -102.566757975999863, 29.771052144000056 ] ], [ [ -101.405097615999921, 29.77844187400008 ], [ -101.414011799999869, 29.774411113000031 ], [ -101.424217895999831, 29.771413880000051 ], [ -101.435095784999902, 29.77012196900003 ] ], [ [ -101.336238769999881, 29.654315084000078 ], [ -101.349028686999986, 29.660102845000079 ], [ -101.357684489999897, 29.667440898000031 ], [ -101.364350749999957, 29.67666514100009 ], [ -101.376623901999963, 29.70064300500006 ], [ -101.383367675999835, 29.718497213 ], [ -101.399619914999846, 29.740718079000139 ], [ -101.406544555999844, 29.752887879000021 ], [ -101.409309244999918, 29.765781149000063 ], [ -101.405097615999921, 29.77844187400008 ] ], [ [ -102.515288248999937, 29.784720561000132 ], [ -102.523065551999977, 29.782317607000042 ], [ -102.531127075999905, 29.769915263000051 ], [ -102.541539876999934, 29.76247385700006 ], [ -102.543348551999941, 29.760122579000033 ], [ -102.546578328999942, 29.75787465400014 ], [ -102.553141235999959, 29.756737773000136 ] ], [ [ -102.406095947999887, 29.777279155000045 ], [ -102.515288248999937, 29.784720561000132 ] ], [ [ -101.470907552999904, 29.79151601200007 ], [ -101.490286214999969, 29.785547384000036 ], [ -101.505763306999953, 29.773894348000038 ], [ -101.521808838999874, 29.765936178000064 ] ], [ [ -101.435095784999902, 29.77012196900003 ], [ -101.446102864999929, 29.771052144000056 ], [ -101.45568884399988, 29.77590972900002 ], [ -101.462432617999937, 29.788932190000033 ], [ -101.470907552999904, 29.79151601200007 ] ], [ [ -102.01459529599984, 29.810998027000068 ], [ -102.109344034999907, 29.802109681000058 ] ], [ [ -101.987930256999903, 29.805184428000036 ], [ -102.01459529599984, 29.810998027000068 ] ], [ [ -101.812695474999941, 29.812031556000047 ], [ -101.824090128999899, 29.805184428000036 ], [ -101.85760229499995, 29.805184428000036 ] ], [ [ -101.632215535999933, 29.775651346999979 ], [ -101.794531209999917, 29.795856832000133 ], [ -101.802980305999938, 29.801437887000059 ], [ -101.80597753999993, 29.811928203 ], [ -101.812695474999941, 29.812031556000047 ] ], [ [ -101.887419596999891, 29.812289938000088 ], [ -101.895455281999872, 29.808620911000105 ], [ -101.902379923999874, 29.803246562000158 ], [ -101.910880696999882, 29.799887594 ], [ -101.920156616999918, 29.798182271000023 ], [ -101.92961340399988, 29.797717183000103 ] ], [ [ -101.85760229499995, 29.805184428000036 ], [ -101.877523559999929, 29.810842997000055 ], [ -101.887419596999891, 29.812289938000088 ] ], [ [ -101.972246460999955, 29.818181051000114 ], [ -101.987930256999903, 29.805184428000036 ] ], [ [ -101.92961340399988, 29.797717183000103 ], [ -101.942661702999928, 29.803608297000043 ], [ -101.957053588999955, 29.814046936000018 ], [ -101.972246460999955, 29.818181051000114 ] ], [ [ -101.546458496999847, 29.820144755000022 ], [ -101.549765787999931, 29.815700582000115 ], [ -101.553977416999928, 29.796683655000038 ], [ -101.564906982999858, 29.786477560000073 ], [ -101.580280720999895, 29.781568298000039 ], [ -101.632215535999933, 29.775651346999979 ] ], [ [ -101.521808838999874, 29.765936178000064 ], [ -101.542892822999903, 29.771052144000056 ], [ -101.539688883999929, 29.779191182000076 ], [ -101.530516317999854, 29.796476949000059 ], [ -101.528604289999905, 29.801437887000059 ], [ -101.531911580999903, 29.811101380000107 ], [ -101.539172119999947, 29.817974345000039 ], [ -101.546458496999847, 29.820144755000022 ] ], [ [ -102.258275513999891, 29.873474833000014 ], [ -102.276181396999888, 29.8695474250001 ] ], [ [ -102.109344034999907, 29.802109681000058 ], [ -102.145646728999864, 29.815700582000115 ], [ -102.157248087999889, 29.824537252000063 ], [ -102.203679362999907, 29.846138001000082 ], [ -102.239775349999988, 29.849135234000066 ], [ -102.253443765999847, 29.855284729000036 ], [ -102.258275513999891, 29.873474833000014 ] ], [ [ -102.321010701999981, 29.893938700000113 ], [ -102.330234944999944, 29.888926087000062 ], [ -102.339769246999921, 29.870632629000035 ], [ -102.351060547999936, 29.866601868000181 ], [ -102.363230346999899, 29.864276429000096 ], [ -102.37072342999997, 29.857765198000035 ], [ -102.374547485999855, 29.848101705000087 ], [ -102.376588704999861, 29.821488342000105 ], [ -102.380051025999862, 29.811385600000079 ], [ -102.404132242999978, 29.780793152000012 ], [ -102.406095947999887, 29.777279155000045 ] ], [ [ -102.276181396999888, 29.8695474250001 ], [ -102.289022990999868, 29.878125712000095 ], [ -102.30217464199994, 29.889391174000167 ], [ -102.321010701999981, 29.893938700000113 ] ], [ [ -105.133603882999935, 30.757916972000142 ], [ -105.14042517099989, 30.750475565999956 ] ], [ [ -104.338484456999893, 29.524012960000064 ], [ -104.349026448999865, 29.537578024 ], [ -104.430442667999884, 29.58279490200001 ], [ -104.437832397999912, 29.585430399 ], [ -104.444007731999875, 29.589202779000118 ], [ -104.448555257999914, 29.597677714000085 ], [ -104.452069254999884, 29.607108664000037 ], [ -104.455221517999931, 29.613387350000075 ], [ -104.469380859999944, 29.625402120000043 ], [ -104.516638957999888, 29.654315084000078 ], [ -104.530824137999886, 29.667905986000051 ], [ -104.535035766999925, 29.677802022000094 ], [ -104.535190795999924, 29.687853088000058 ], [ -104.537102824999877, 29.702115784000025 ], [ -104.543665731999866, 29.716430156000055 ], [ -104.561390747999866, 29.745420634000087 ], [ -104.570279093999972, 29.787511089000052 ], [ -104.583585774999918, 29.802574768000063 ], [ -104.601207437999889, 29.814770407000086 ], [ -104.619681762999903, 29.833063864 ], [ -104.623764200999929, 29.841487122 ], [ -104.637587646999862, 29.887995911000026 ], [ -104.656346191999944, 29.908201396000081 ], [ -104.660635335999942, 29.918433330000088 ], [ -104.663477539999931, 29.923084207999963 ], [ -104.676525838999865, 29.936830140000048 ], [ -104.68047908599992, 29.942307841000019 ], [ -104.682468628999871, 29.952126363000069 ], [ -104.680117349999932, 29.967784322000085 ], [ -104.68047908599992, 29.976465963000127 ], [ -104.699108438999886, 30.031449687000023 ], [ -104.701588907999877, 30.055324199000061 ], [ -104.698591674999946, 30.075271301000068 ], [ -104.684639037999943, 30.111134746000054 ], [ -104.68047908599992, 30.134130758000119 ], [ -104.678670410999928, 30.170355937000075 ], [ -104.681564290999916, 30.192938538000096 ], [ -104.6958528239999, 30.208441467 ], [ -104.715231486999883, 30.243994853000068 ], [ -104.724584920999902, 30.252211406000093 ], [ -104.742154907999918, 30.259859517999963 ], [ -104.749389608999934, 30.264458721000079 ], [ -104.761688598999882, 30.284199117000107 ], [ -104.774142619999893, 30.311587627000026 ], [ -104.788767048999972, 30.335927226000077 ], [ -104.807732300999888, 30.346417541000015 ], [ -104.812899943999909, 30.350706686000027 ], [ -104.814967000999857, 30.360576884000043 ], [ -104.816000528999879, 30.371997376000028 ], [ -104.818274291999899, 30.380523987000061 ], [ -104.824268757999917, 30.387190247000024 ], [ -104.837549601999882, 30.394063212000056 ], [ -104.844939330999892, 30.401039530000027 ], [ -104.853259236999861, 30.412149964000104 ], [ -104.85501623599994, 30.417472636000078 ], [ -104.853620972999892, 30.423983866000125 ], [ -104.85243241399985, 30.438866679000018 ], [ -104.854654500999956, 30.448736877000034 ], [ -104.864473022999917, 30.462017721 ], [ -104.866695109999924, 30.473024800000115 ], [ -104.865248169999944, 30.479897767000068 ], [ -104.85961543899991, 30.491111552000067 ], [ -104.859253703999883, 30.497261047999952 ], [ -104.863026082999937, 30.502377014999954 ], [ -104.879717570999887, 30.510851949000106 ], [ -104.882146362999904, 30.520928854000111 ], [ -104.884006714999941, 30.541857809000131 ], [ -104.886590535999915, 30.55188303700006 ], [ -104.898166056999855, 30.569401347000142 ], [ -104.928241739999933, 30.59952870700009 ], [ -104.934339559999898, 30.610535787000121 ], [ -104.941057495999928, 30.614049785000098 ], [ -104.972735148999931, 30.618028869999989 ], [ -104.982760375999945, 30.620716044000055 ], [ -104.989116577999866, 30.629552714 ], [ -104.991648722999869, 30.640301412000092 ], [ -104.99294063399995, 30.651463522000135 ], [ -104.995782837999883, 30.661747132000105 ], [ -105.008495239999974, 30.676991679000164 ], [ -105.027977254999925, 30.690117493000116 ], [ -105.049474650999898, 30.699264221000071 ], [ -105.068129842999852, 30.70267486600001 ], [ -105.08704341699989, 30.709806214000093 ], [ -105.133603882999935, 30.757916972000142 ] ], [ [ -105.157788452999938, 30.765720113000015 ], [ -105.160889037999951, 30.764118144000086 ] ], [ [ -105.14042517099989, 30.750475565999956 ], [ -105.153240926999885, 30.763187969000061 ], [ -105.157788452999938, 30.765720113000015 ] ], [ [ -105.22925695899994, 30.810213522000168 ], [ -105.232874308999897, 30.809128316000017 ], [ -105.23985062699991, 30.801531881000027 ], [ -105.243984741999824, 30.799103089000099 ], [ -105.249049032999906, 30.798844706000047 ] ], [ [ -105.160889037999951, 30.764118144000086 ], [ -105.162697712999943, 30.774918518000042 ], [ -105.167296916999874, 30.781171367000063 ], [ -105.174789998999927, 30.783961894000068 ], [ -105.18512528499997, 30.784633688000064 ], [ -105.195305542999904, 30.787940980000066 ], [ -105.204917358999936, 30.802410381000097 ], [ -105.212100382999978, 30.805717672000089 ], [ -105.218249878999956, 30.806802877000131 ], [ -105.22925695899994, 30.810213522000168 ] ], [ [ -106.428951172999902, 31.758476054000031 ], [ -106.473134521999881, 31.755065409 ] ], [ [ -105.249049032999906, 30.798844706000047 ], [ -105.259487670999974, 30.802978821000046 ], [ -105.26584387299998, 30.808404847000066 ], [ -105.270753133999904, 30.814347636000058 ], [ -105.277005981999906, 30.819411926 ], [ -105.334315145, 30.843803202000011 ], [ -105.363770711999848, 30.850366109000039 ], [ -105.376173055999942, 30.859564514000066 ], [ -105.415550496999927, 30.902455954000093 ], [ -105.496682495999892, 30.956509501000038 ], [ -105.530788940999884, 30.991701152000026 ], [ -105.555955363999885, 31.002604879000021 ], [ -105.565722208999958, 31.016660868000098 ], [ -105.578641316999935, 31.05216257700009 ], [ -105.590940307999887, 31.071437887000123 ], [ -105.605874796999885, 31.081928203000071 ], [ -105.623496459999856, 31.090351461000065 ], [ -105.643805297999862, 31.103683980000081 ], [ -105.668041544999923, 31.127868551000038 ], [ -105.675224568999923, 31.131950989000064 ], [ -105.692277791999956, 31.137635396000114 ], [ -105.768190470999869, 31.180010071000147 ], [ -105.777853963999917, 31.192722474000057 ], [ -105.784830281999888, 31.211015930000162 ], [ -105.861983194999937, 31.288375550000012 ], [ -105.880147461999897, 31.300881246000028 ], [ -105.896993978999944, 31.305997213000033 ], [ -105.8971490079999, 31.309511211000107 ], [ -105.908802042999881, 31.31700429300016 ], [ -105.928051513999918, 31.326461080000133 ], [ -105.934562743999976, 31.335504456000059 ], [ -105.941771606999907, 31.352350973000053 ], [ -105.948515381999982, 31.361239319000067 ], [ -105.961201945999903, 31.371006164999955 ], [ -106.004739338999912, 31.396947734000037 ], [ -106.021146606999878, 31.402167053000067 ], [ -106.04626135299992, 31.404647522000069 ], [ -106.06530411899989, 31.410952047000052 ], [ -106.099384724999922, 31.428883769 ], [ -106.141113444999917, 31.439167379000061 ], [ -106.16431616299991, 31.44779734300003 ], [ -106.174470581999856, 31.460251363000083 ], [ -106.209248819999871, 31.477304586000056 ], [ -106.215424154999894, 31.483919170000057 ], [ -106.217439534999912, 31.488725077000034 ], [ -106.218731444999975, 31.494616190999974 ], [ -106.22289139899992, 31.504589742000125 ], [ -106.23265824399995, 31.519937643000034 ], [ -106.274748698999915, 31.562622376000075 ], [ -106.286298380999952, 31.580140687000071 ], [ -106.312291626999922, 31.648611959000082 ], [ -106.331308553999889, 31.682149963000157 ], [ -106.35849035699998, 31.717548320000027 ], [ -106.391769979999921, 31.745918681000038 ], [ -106.428951172999902, 31.758476054000031 ] ], [ [ -106.473134521999881, 31.755065409 ], [ -106.492797404999919, 31.759044495 ], [ -106.50142524799989, 31.76634368400002 ], [ -106.506052409999938, 31.770258281000096 ], [ -106.517188679999975, 31.773823954000029 ], [ -106.53, 31.78 ], [ -106.75, 31.78 ], [ -107.0, 31.78 ], [ -107.18, 31.78 ], [ -107.42, 31.78 ], [ -107.63, 31.78 ], [ -107.88, 31.78 ], [ -108.21, 31.78 ], [ -108.21, 31.53 ], [ -108.21, 31.33 ], [ -108.47, 31.33 ], [ -108.71, 31.33 ], [ -108.82, 31.33 ], [ -109.05, 31.33 ], [ -109.25, 31.33 ], [ -109.5, 31.33 ], [ -109.88, 31.33 ], [ -110.0, 31.33 ], [ -110.14, 31.33 ], [ -110.46, 31.33 ], [ -110.75, 31.33 ], [ -111.0, 31.33 ], [ -111.07, 31.33 ], [ -111.29, 31.4 ], [ -111.56, 31.49 ], [ -111.88, 31.59 ], [ -112.11, 31.66 ], [ -112.37, 31.74 ], [ -112.57, 31.8 ], [ -112.88, 31.9 ], [ -113.13, 31.97 ], [ -113.46, 32.08 ], [ -113.75, 32.17 ], [ -113.93, 32.22 ], [ -114.25, 32.32 ], [ -114.63, 32.44 ], [ -114.81, 32.49 ], [ -114.81, 32.52 ], [ -114.8, 32.53 ], [ -114.81, 32.57 ], [ -114.8, 32.57 ], [ -114.8, 32.59 ], [ -114.81, 32.62 ], [ -114.79, 32.62 ], [ -114.76, 32.64 ], [ -114.75, 32.66 ], [ -114.74, 32.68 ], [ -114.72, 32.72 ], [ -114.91, 32.71 ], [ -115.25, 32.68 ], [ -115.47, 32.67 ], [ -115.8, 32.64 ], [ -116.05, 32.62 ], [ -116.35, 32.6 ], [ -116.36, 32.6 ], [ -116.38, 32.6 ], [ -116.5, 32.59 ], [ -116.79, 32.56 ], [ -116.93, 32.55 ], [ -117.12, 32.53 ] ], [ [ -107.85286942599987, 31.77692454100006 ], [ -107.878759317999922, 31.77692454100006 ] ], [ [ -107.671743530999933, 31.776459453000044 ], [ -107.697633423999918, 31.776562805000069 ], [ -107.7234716399999, 31.776614482000046 ], [ -107.749361531999867, 31.776666158000108 ], [ -107.775251424999894, 31.776717835000081 ], [ -107.801141316999946, 31.776769511000047 ], [ -107.826979532999943, 31.776872864000087 ], [ -107.85286942599987, 31.77692454100006 ] ], [ [ -108.05988521399992, 31.77738962900008 ], [ -108.085723428999941, 31.77738962900008 ] ], [ [ -107.878759317999922, 31.77692454100006 ], [ -107.904597534999937, 31.777027893000088 ], [ -107.93048742799995, 31.777079569000151 ], [ -107.956377319999916, 31.777131246000028 ], [ -107.982215535999913, 31.777182923000101 ], [ -108.008105428999883, 31.777234599000067 ], [ -108.033995320999892, 31.777337952 ], [ -108.05988521399992, 31.77738962900008 ] ], [ [ -108.111613321999869, 31.777544657000071 ], [ -108.137503214999938, 31.777544657000071 ] ], [ [ -108.085723428999941, 31.77738962900008 ], [ -108.111613321999869, 31.777544657000071 ] ], [ [ -108.215121216999933, 31.777751364000061 ], [ -108.215121216999933, 31.770723369000017 ], [ -108.215121216999933, 31.763695374000072 ], [ -108.215121216999933, 31.756667379000124 ], [ -108.215121216999933, 31.74963938400008 ], [ -108.215121216999933, 31.742559713000073 ], [ -108.215121216999933, 31.735583395000102 ], [ -108.215121216999933, 31.728555400000058 ], [ -108.215121216999933, 31.721475728000136 ], [ -108.215121216999933, 31.71439605700003 ], [ -108.215121216999933, 31.707419738999963 ], [ -108.215121216999933, 31.700391744000111 ], [ -108.215121216999933, 31.693312073000104 ], [ -108.215121216999933, 31.686284079000071 ], [ -108.215121216999933, 31.679256084000027 ], [ -108.215121216999933, 31.67217641200001 ], [ -108.215069539999902, 31.665148417999976 ], [ -108.215017863999989, 31.658172099 ], [ -108.215017863999989, 31.651092428000084 ], [ -108.215017863999989, 31.64406443300004 ], [ -108.215017863999989, 31.637036438000091 ], [ -108.215017863999989, 31.630008443000047 ], [ -108.215017863999989, 31.622980449000014 ], [ -108.215017863999989, 31.61595245400007 ], [ -108.215017863999989, 31.608872782000049 ], [ -108.215017863999989, 31.601844788000015 ], [ -108.215017863999989, 31.594816793000071 ], [ -108.215017863999989, 31.587788798000123 ], [ -108.215017863999989, 31.580760803000082 ], [ -108.215017863999989, 31.573732808000134 ], [ -108.215017863999989, 31.566653138000039 ], [ -108.215017863999989, 31.559625143000094 ], [ -108.214966186999874, 31.55259714800005 ], [ -108.214966186999874, 31.545569153000102 ], [ -108.214966186999874, 31.538489482 ], [ -108.214966186999874, 31.531461487000147 ], [ -108.214966186999874, 31.52448516900008 ], [ -108.214966186999874, 31.51740549800007 ], [ -108.214966186999874, 31.510377503000125 ], [ -108.214966186999874, 31.503401184000044 ], [ -108.214966186999874, 31.496321513000037 ], [ -108.214966186999874, 31.489241842000027 ], [ -108.214966186999874, 31.482213847000082 ], [ -108.214966186999874, 31.475237529000111 ], [ -108.214966186999874, 31.46815785700009 ], [ -108.214966186999874, 31.46112986200005 ], [ -108.214966186999874, 31.454101868000112 ], [ -108.214966186999874, 31.447073873000068 ], [ -108.214914510999847, 31.440045878000024 ], [ -108.214862833999931, 31.432966208000028 ], [ -108.214862833999931, 31.42593821300008 ], [ -108.214862833999931, 31.418910218000136 ], [ -108.214862833999931, 31.411882223000092 ], [ -108.214862833999931, 31.404802552000081 ], [ -108.214862833999931, 31.397826233000099 ], [ -108.214862833999931, 31.390798239000066 ], [ -108.214862833999931, 31.383718567000049 ], [ -108.214862833999931, 31.376638896000138 ], [ -108.214862833999931, 31.369662578000167 ], [ -108.214862833999931, 31.362634583000027 ], [ -108.214862833999931, 31.355554911000102 ], [ -108.214862833999931, 31.348526917000072 ], [ -108.214862833999931, 31.34155059800009 ], [ -108.214862833999931, 31.33447092700008 ], [ -108.214811157999918, 31.327442932000036 ], [ -108.257573404999846, 31.327391256000073 ], [ -108.300335652999948, 31.327391256000073 ], [ -108.343020385999893, 31.327391256000073 ], [ -108.385730957999883, 31.327391256000073 ], [ -108.428441528999954, 31.327391256000073 ], [ -108.47115209999987, 31.327391256000073 ], [ -108.513836832999871, 31.327391256000073 ], [ -108.556547403999886, 31.327391256000073 ], [ -108.599309651999889, 31.327391256000073 ], [ -108.642020222999918, 31.327391256000073 ], [ -108.684756632999921, 31.327391256000073 ], [ -108.727467203999907, 31.327391256000073 ], [ -108.77017777599994, 31.327391256000073 ], [ -108.812914185999958, 31.327391256000073 ], [ -108.85562475699993, 31.327391256000073 ], [ -108.898335327999945, 31.327391256000073 ], [ -108.941045898999874, 31.327391256000073 ], [ -108.968281966999896, 31.327391256000073 ], [ -108.983730631999961, 31.327391256000073 ], [ -109.026492879999864, 31.327391256000073 ], [ -109.04743046299987, 31.327391256000073 ], [ -109.069203450999893, 31.327391256000073 ], [ -109.111914022999969, 31.327391256000073 ], [ -109.154598755999871, 31.327391256000073 ], [ -109.197361003999916, 31.327391256000073 ], [ -109.240071574999888, 31.327339580000011 ], [ -109.282782145999917, 31.327339580000011 ], [ -109.325518554999917, 31.327339580000011 ], [ -109.368229125999946, 31.327339580000011 ], [ -109.410913858999933, 31.327339580000011 ], [ -109.453650268999894, 31.327339580000011 ], [ -109.496386677999951, 31.327339580000011 ], [ -109.539071411999913, 31.327339580000011 ], [ -109.58180782099997, 31.327339580000011 ], [ -109.624492553999957, 31.327339580000011 ], [ -109.667177287999962, 31.327339580000011 ], [ -109.709965372999974, 31.327339580000011 ], [ -109.752650105999876, 31.327339580000011 ], [ -109.795334839999882, 31.327339580000011 ], [ -109.838122924999894, 31.327339580000011 ], [ -109.880807658999899, 31.327339580000011 ], [ -109.923595743999911, 31.32728790300013 ], [ -109.966280477999916, 31.327236227000068 ], [ -110.008965210999904, 31.327236227000068 ], [ -110.051701619999918, 31.327236227000068 ], [ -110.094386352999905, 31.327236227000068 ], [ -110.137071085999906, 31.327236227000068 ], [ -110.17980749599991, 31.327236227000068 ], [ -110.222543905999927, 31.327236227000068 ], [ -110.265228637999968, 31.327236227000068 ], [ -110.308016723999842, 31.327236227000068 ], [ -110.350753132999898, 31.327236227000068 ], [ -110.393489542999873, 31.327236227000068 ], [ -110.436174276999921, 31.327236227000068 ], [ -110.478859008999905, 31.327236227000068 ], [ -110.521595418999922, 31.327236227000068 ], [ -110.56428015199991, 31.327236227000068 ], [ -110.606964884999897, 31.327236227000068 ], [ -110.649727132999899, 31.327236227000068 ], [ -110.692437703999929, 31.327236227000068 ], [ -110.735199950999913, 31.327236227000068 ], [ -110.777884684999918, 31.327236227000068 ], [ -110.820595255999933, 31.327236227000068 ], [ -110.863357503999893, 31.327236227000068 ], [ -110.906068074999865, 31.327236227000068 ], [ -110.948752807999952, 31.327184550000094 ], [ -111.00626867799987, 31.327184550000094 ] ], [ [ -108.137503214999938, 31.777544657000071 ], [ -108.163341430999935, 31.77764801000011 ], [ -108.189282999999875, 31.777699687000087 ], [ -108.215121216999933, 31.777751364000061 ] ], [ [ -111.00626867799987, 31.327184550000094 ], [ -111.067117675999896, 31.333644104000079 ], [ -111.094454508999945, 31.342532451 ], [ -111.145924235999914, 31.359068909000083 ], [ -111.197445637999891, 31.375553690000086 ], [ -111.248863687999901, 31.392141826000053 ], [ -111.300333414999869, 31.408729960000095 ], [ -111.351803141999952, 31.425318095000048 ], [ -111.403298705999944, 31.441854554000038 ], [ -111.454768432999927, 31.458339335000044 ], [ -111.506238159999953, 31.47497914700007 ], [ -111.915463826999897, 31.601431375999962 ], [ -112.324715331999926, 31.727986959000098 ], [ -112.733966837999915, 31.85454254200004 ], [ -113.143218342999887, 31.981046448 ], [ -113.552444010999906, 32.107602031000042 ], [ -113.961695516999896, 32.234131775000037 ], [ -114.370921183999897, 32.360687358000078 ], [ -114.780146850999884, 32.487242940000101 ], [ -114.816785441999954, 32.498534241000023 ], [ -114.819373117999888, 32.499363302000056 ], [ -114.822108114999978, 32.500239562999987 ], [ -114.809447388999942, 32.511324158000022 ], [ -114.795546427999867, 32.552226054 ], [ -114.794202839999912, 32.574111024000096 ], [ -114.802677774999879, 32.594497374999982 ], [ -114.786813110999901, 32.621033224000165 ], [ -114.781542113999933, 32.628061218 ], [ -114.758804484999871, 32.644830221000099 ], [ -114.751156371999897, 32.652219951000127 ], [ -114.739477498999932, 32.669066468000025 ], [ -114.731209269999894, 32.686636454000066 ], [ -114.723871216999882, 32.711518657000056 ], [ -114.724284266999874, 32.712835255000087 ], [ -114.724284627999879, 32.712836405000097 ] ] ] } },
{ "type": "Feature", "properties": { }, "geometry": { "type": "LineString", "coordinates": [ [ -123.09, 49.0 ], [ -123.04, 49.0 ], [ -122.76, 49.0 ], [ -122.38, 49.0 ], [ -122.1, 49.0 ], [ -121.75, 49.0 ], [ -121.4, 49.0 ], [ -121.35, 49.0 ], [ -121.13, 49.0 ], [ -121.033507497480343, 49.0 ], [ -120.98, 49.0 ], [ -120.72, 49.0 ], [ -120.68, 49.0 ], [ -120.38, 49.0 ], [ -120.0, 49.0 ], [ -119.73, 49.0 ], [ -119.38, 49.0 ], [ -118.94, 49.0 ], [ -118.9, 49.0 ], [ -118.54, 49.0 ], [ -118.17, 49.0 ], [ -117.88, 49.0 ], [ -117.46, 49.0 ], [ -117.13, 49.0 ], [ -117.03, 49.0 ], [ -116.63, 49.0 ], [ -116.39, 49.0 ], [ -116.37, 49.0 ], [ -116.05, 49.0 ], [ -115.62, 49.0 ], [ -115.21, 49.0 ], [ -114.9, 49.0 ], [ -114.54, 49.0 ], [ -114.25, 49.0 ], [ -114.06, 49.0 ], [ -113.69, 49.0 ], [ -113.38, 49.0 ], [ -113.14, 49.0 ], [ -112.86, 49.0 ], [ -112.5, 49.0 ], [ -112.33, 49.0 ], [ -112.3, 49.0 ], [ -112.0, 49.0 ], [ -111.63, 49.0 ], [ -111.34, 49.0 ], [ -111.13, 49.0 ], [ -110.87, 49.0 ], [ -110.58, 49.0 ], [ -110.22, 49.0 ], [ -109.88, 49.0 ], [ -109.83, 49.0 ], [ -109.75, 49.0 ], [ -109.29, 49.0 ], [ -109.18, 49.0 ], [ -108.84, 49.0 ], [ -108.49, 49.0 ], [ -108.39, 49.0 ], [ -108.38, 49.0 ], [ -108.05, 49.0 ], [ -107.73, 49.0 ], [ -107.44, 49.0 ], [ -107.09, 49.0 ], [ -106.62, 49.0 ], [ -106.11, 49.0 ], [ -105.7, 49.0 ], [ -105.34, 49.0 ], [ -104.88, 49.0 ], [ -104.66, 49.0 ], [ -104.38, 49.0 ], [ -104.129966325694255, 49.0 ], [ -104.05, 49.0 ], [ -103.6, 49.0 ], [ -103.25, 49.0 ], [ -103.2, 49.0 ], [ -102.98, 49.0 ], [ -102.57, 49.0 ], [ -102.22, 49.0 ], [ -101.75, 49.0 ], [ -101.46, 49.0 ], [ -101.177504202524332, 49.0 ], [ -101.09, 49.0 ], [ -101.08, 49.0 ], [ -100.84, 49.0 ], [ -100.53, 49.0 ], [ -100.18, 49.0 ], [ -99.94, 49.0 ], [ -99.7, 49.0 ], [ -99.3, 49.0 ], [ -98.75, 49.0 ], [ -98.38, 49.0 ], [ -98.13, 49.0 ], [ -97.88, 49.0 ], [ -97.48, 49.0 ], [ -97.23, 49.0 ], [ -96.8, 49.0 ], [ -96.45, 49.0 ], [ -95.92, 49.0 ], [ -95.59, 49.0 ], [ -95.25, 49.0 ], [ -95.22, 49.0 ], [ -95.15, 49.0 ], [ -95.15, 49.12 ], [ -95.15, 49.38 ], [ -95.13, 49.37 ], [ -95.06, 49.35 ], [ -95.01, 49.36 ], [ -94.99, 49.37 ], [ -94.96, 49.37 ], [ -94.85, 49.32 ], [ -94.82, 49.32 ], [ -94.83, 49.29 ], [ -94.8, 49.21 ], [ -94.8, 49.2 ], [ -94.77, 49.12 ], [ -94.75, 49.1 ], [ -94.75, 49.0 ], [ -94.72, 49.0 ], [ -94.68, 48.88 ], [ -94.69, 48.87 ], [ -94.69, 48.84 ], [ -94.7, 48.82 ], [ -94.69, 48.81 ], [ -94.69, 48.78 ], [ -94.65, 48.76 ], [ -94.64, 48.74 ], [ -94.62, 48.74 ], [ -94.59, 48.72 ], [ -94.56, 48.72 ], [ -94.54, 48.7 ], [ -94.45, 48.69 ], [ -94.44, 48.69 ], [ -94.42, 48.71 ], [ -94.39, 48.71 ], [ -94.34, 48.7 ], [ -94.31, 48.71 ], [ -94.26, 48.7 ], [ -94.25, 48.68 ], [ -94.25, 48.66 ], [ -94.24, 48.65 ], [ -94.16, 48.65 ], [ -94.09, 48.64 ], [ -94.07, 48.65 ], [ -94.03, 48.64 ], [ -94.01, 48.64 ], [ -93.93, 48.63 ], [ -93.91, 48.63 ], [ -93.84, 48.63 ], [ -93.82, 48.61 ], [ -93.81, 48.57 ], [ -93.82, 48.53 ], [ -93.79, 48.52 ], [ -93.71, 48.52 ], [ -93.69, 48.51 ], [ -93.65, 48.52 ], [ -93.63, 48.53 ], [ -93.61, 48.52 ], [ -93.6, 48.53 ], [ -93.55, 48.53 ], [ -93.5, 48.54 ], [ -93.47, 48.55 ], [ -93.46, 48.56 ], [ -93.47, 48.59 ], [ -93.44, 48.59 ], [ -93.4, 48.61 ], [ -93.37, 48.61 ], [ -93.36, 48.61 ], [ -93.35, 48.63 ], [ -93.31, 48.63 ], [ -93.29, 48.64 ], [ -93.25, 48.64 ], [ -93.21, 48.64 ], [ -93.18, 48.62 ], [ -93.09, 48.63 ], [ -92.98, 48.62 ], [ -92.95, 48.63 ], [ -92.95, 48.61 ], [ -92.93, 48.61 ], [ -92.73, 48.54 ], [ -92.66, 48.55 ], [ -92.63, 48.54 ], [ -92.63, 48.51 ], [ -92.64, 48.5 ], [ -92.7, 48.49 ], [ -92.71, 48.46 ], [ -92.69, 48.44 ], [ -92.66, 48.44 ], [ -92.58, 48.44 ], [ -92.54, 48.45 ], [ -92.51, 48.45 ], [ -92.48, 48.42 ], [ -92.46, 48.41 ], [ -92.46, 48.4 ], [ -92.48, 48.37 ], [ -92.47, 48.35 ], [ -92.43, 48.31 ], [ -92.42, 48.29 ], [ -92.37, 48.22 ], [ -92.31, 48.24 ], [ -92.28, 48.24 ], [ -92.27, 48.26 ], [ -92.29, 48.27 ], [ -92.3, 48.29 ], [ -92.29, 48.34 ], [ -92.26, 48.35 ], [ -92.21, 48.35 ], [ -92.18, 48.35 ], [ -92.16, 48.36 ], [ -92.14, 48.36 ], [ -92.08, 48.35 ], [ -92.06, 48.36 ], [ -92.05, 48.33 ], [ -92.03, 48.33 ], [ -92.0, 48.32 ], [ -92.01, 48.3 ], [ -92.01, 48.27 ], [ -91.95, 48.25 ], [ -91.96, 48.23 ], [ -91.95, 48.23 ], [ -91.92, 48.24 ], [ -91.89, 48.24 ], [ -91.87, 48.22 ], [ -91.86, 48.21 ], [ -91.82, 48.21 ], [ -91.78, 48.2 ], [ -91.72, 48.2 ], [ -91.71, 48.17 ], [ -91.71, 48.15 ], [ -91.7, 48.14 ], [ -91.71, 48.11 ], [ -91.68, 48.11 ], [ -91.65, 48.11 ], [ -91.64, 48.1 ], [ -91.59, 48.1 ], [ -91.57, 48.09 ], [ -91.58, 48.05 ], [ -91.54, 48.05 ], [ -91.49, 48.07 ], [ -91.45, 48.07 ], [ -91.43, 48.05 ], [ -91.39, 48.06 ], [ -91.37, 48.07 ], [ -91.34, 48.07 ], [ -91.29, 48.07 ], [ -91.25, 48.08 ], [ -91.21, 48.1 ], [ -91.14, 48.15 ], [ -91.11, 48.17 ], [ -91.08, 48.18 ], [ -91.03, 48.19 ], [ -90.98, 48.22 ], [ -90.93, 48.23 ], [ -90.89, 48.25 ], [ -90.88, 48.24 ], [ -90.84, 48.24 ], [ -90.83, 48.17 ], [ -90.8, 48.18 ], [ -90.8, 48.16 ], [ -90.78, 48.15 ], [ -90.8, 48.14 ], [ -90.78, 48.12 ], [ -90.76, 48.1 ], [ -90.74, 48.09 ], [ -90.64, 48.1 ], [ -90.63, 48.11 ], [ -90.58, 48.12 ], [ -90.56, 48.1 ], [ -90.49, 48.1 ], [ -90.47, 48.11 ], [ -90.44, 48.1 ], [ -90.4, 48.11 ], [ -90.38, 48.09 ], [ -90.35, 48.09 ], [ -90.31, 48.11 ], [ -90.29, 48.1 ], [ -90.22, 48.11 ], [ -90.13, 48.11 ], [ -90.12, 48.1 ], [ -90.09, 48.1 ], [ -90.02, 48.08 ], [ -89.99, 48.05 ], [ -89.99, 48.03 ], [ -89.9, 47.99 ], [ -89.87, 47.99 ], [ -89.83, 48.0 ], [ -89.82, 48.02 ], [ -89.8, 48.01 ], [ -89.77, 48.02 ], [ -89.73, 48.02 ], [ -89.72, 48.01 ], [ -89.62, 48.01 ], [ -89.59, 48.0 ], [ -89.57, 47.98 ], [ -89.544128917680624, 47.98 ], [ -89.498962443999858, 47.995094552000047 ], [ -89.461847289999938, 47.994539286000112 ], [ -89.387097330999879, 47.980534973 ], [ -89.363636230999887, 47.979604797000057 ], [ -89.340381835999878, 47.984152324000014 ], [ -89.245529744999985, 48.021178488000039 ], [ -89.095254678999908, 48.07993459100004 ], [ -88.904620320999896, 48.154296977000044 ], [ -88.782147175999896, 48.202071838 ], [ -88.642724162999869, 48.256590475000031 ], [ -88.578877929999877, 48.270388082000061 ], [ -88.4079064539999, 48.304055278000121 ], [ -88.376461344999896, 48.305114645000081 ], [ -88.347264159999881, 48.29865509100005 ], [ -88.159678711999931, 48.224886984000086 ], [ -87.972093261999959, 48.151170553000085 ], [ -87.784481974999963, 48.077428284000057 ], [ -87.596896524999892, 48.003737692000101 ], [ -87.409259399999954, 47.929995422000111 ], [ -87.221699788999828, 47.856253154000044 ], [ -87.034166015999929, 47.78248504700008 ], [ -86.846554728999934, 47.708742778000051 ], [ -86.741806601, 47.666445618000068 ], [ -86.637058471999936, 47.624122620000108 ], [ -86.532310343999896, 47.581902975 ], [ -86.427613891999911, 47.539579977000074 ], [ -86.322865763999971, 47.49720530200009 ], [ -86.218117635000013, 47.454933981000103 ], [ -86.113369506999874, 47.412662659 ], [ -86.008569702999964, 47.37036549900003 ], [ -85.883616088999943, 47.318559876000066 ], [ -85.758610798999868, 47.266780090000069 ], [ -85.633631347999938, 47.215026144000035 ], [ -85.508626058999866, 47.16322052000006 ], [ -85.383646606999918, 47.111440735000073 ], [ -85.258641316999842, 47.059686788000128 ], [ -85.133661865999912, 47.007829488000134 ], [ -85.008656575999836, 46.955998027000042 ], [ -84.992404337999929, 46.948789164000054 ], [ -84.976203776999895, 46.941476948999984 ], [ -84.95997737699993, 46.934242249000022 ], [ -84.94367346199995, 46.927007548000098 ], [ -84.927447062999889, 46.919669495000051 ], [ -84.911168985999936, 46.91248647000004 ], [ -84.894942586999974, 46.905148417000134 ], [ -84.878690347999864, 46.89791371700008 ], [ -84.863730021999885, 46.881945700000109 ], [ -84.85419572, 46.861171773000081 ], [ -84.83541133699994, 46.803862610000095 ], [ -84.816446085999914, 46.745907491000054 ], [ -84.78745560699987, 46.657179057000057 ], [ -84.773322102999884, 46.633433736000086 ], [ -84.69368872099993, 46.564859111000082 ], [ -84.589405679999899, 46.475122986000095 ], [ -84.566564696999933, 46.461196188000081 ], [ -84.54129492199985, 46.452824606000057 ], [ -84.512304442999906, 46.451636047000065 ], [ -84.492176473999962, 46.456881206000048 ], [ -84.478301350999814, 46.466467184 ], [ -84.465408080999865, 46.478171896000049 ], [ -84.448096475999947, 46.489721578 ], [ -84.423240111999903, 46.511580708999958 ], [ -84.389702107999838, 46.520262350000053 ], [ -84.352469237999927, 46.52274281800004 ], [ -84.305340331999886, 46.501607158000105 ], [ -84.242010864999898, 46.526463521000039 ], [ -84.19728491199993, 46.546358948000041 ], [ -84.147675536999884, 46.541346334000075 ], [ -84.110442667999905, 46.526463521000039 ], [ -84.158811809, 46.433342591000056 ], [ -84.147675536999884, 46.399882101000074 ], [ -84.129046183999932, 46.375025737000129 ], [ -84.105430053999839, 46.347740580000057 ], [ -84.112897298999968, 46.327870992000044 ], [ -84.119098470999816, 46.314228414000105 ], [ -84.114137532999905, 46.295573222000108 ], [ -84.106670288999894, 46.276969706000074 ], [ -84.099228882999896, 46.250873108000086 ], [ -84.099228882999896, 46.237230530000055 ], [ -84.096774250999928, 46.224828187000071 ], [ -84.086800700999873, 46.201212057000077 ], [ -84.055820678999893, 46.171446432000103 ], [ -84.02104243999996, 46.151602681000114 ], [ -84.014169474999832, 46.115997620000094 ], [ -84.008769287999854, 46.112328593000115 ], [ -83.995824340999931, 46.101166483999982 ], [ -83.976394002, 46.073106181000071 ], [ -83.964585937999914, 46.063184307000093 ], [ -83.947300171999842, 46.060600484000048 ], [ -83.930737874999906, 46.066956686000104 ], [ -83.872679402999935, 46.107884420000104 ], [ -83.856427165999932, 46.115739238000053 ], [ -83.839296427999855, 46.119201558999961 ], [ -83.818057413999924, 46.116566060000039 ], [ -83.766536010999829, 46.106489157000063 ], [ -83.664836791999932, 46.119149883000091 ], [ -83.613883829999907, 46.11563588500011 ], [ -83.5654371749999, 46.090779521000073 ], [ -83.508825643999856, 46.047371317000056 ], [ -83.492030802999921, 46.037087707000083 ], [ -83.474099080999878, 46.023135071000048 ], [ -83.462807780999881, 46.007787171000047 ], [ -83.465856689999825, 45.99311106400004 ], [ -83.510246744999932, 45.932391256000116 ], [ -83.556212930999934, 45.869656068000126 ], [ -83.636867, 45.773944 ], [ -83.483974, 45.771937 ], [ -83.359252820897879, 45.715804524943366 ], [ -83.199309652999901, 45.641556295 ], [ -83.019010579999915, 45.561871236000066 ], [ -82.759439860999962, 45.44720123300003 ], [ -82.588778442999896, 45.37180531900011 ], [ -82.548289957999955, 45.334598287000141 ], [ -82.532141073, 45.293515523000025 ], [ -82.484081990999911, 45.083244120000103 ], [ -82.436022908999831, 44.872972718000092 ], [ -82.387886312999839, 44.662701315000071 ], [ -82.33987890599991, 44.452429912000142 ], [ -82.291845662999961, 44.242210185 ], [ -82.243683227999938, 44.031938782000068 ], [ -82.195624145999943, 43.821693217000075 ], [ -82.147565063999863, 43.611344299000045 ], [ -82.145446329999942, 43.600647278000032 ], [ -82.145653035999928, 43.576411031000106 ], [ -82.153611205999894, 43.549590963000057 ], [ -82.185857299999967, 43.487295024000048 ], [ -82.2180000419999, 43.425024923000066 ], [ -82.250194459, 43.36278066000002 ], [ -82.282388875999899, 43.30048472100011 ], [ -82.314505778999987, 43.238188782000101 ], [ -82.346726033999914, 43.175841167000023 ], [ -82.378920450999914, 43.113571066000048 ], [ -82.411089029999872, 43.051275127000032 ], [ -82.416411702999952, 43.017142843000059 ], [ -82.414603027999945, 42.983243104 ], [ -82.42, 42.97 ], [ -82.45, 42.94 ], [ -82.47, 42.89 ], [ -82.47, 42.85 ], [ -82.48, 42.83 ], [ -82.49, 42.8 ], [ -82.47, 42.76 ], [ -82.5, 42.7 ], [ -82.52, 42.63 ], [ -82.54, 42.61 ], [ -82.575833496999891, 42.571795349000034 ], [ -82.608467162999958, 42.561098328000114 ], [ -82.64433060699983, 42.557816874000146 ], [ -82.694405069999902, 42.519137065000038 ], [ -82.800135050999856, 42.417980449000162 ], [ -82.832820395000013, 42.398007508000013 ], [ -82.93, 42.36 ], [ -82.97, 42.36 ], [ -83.03, 42.33 ], [ -83.07, 42.32 ], [ -83.1, 42.29 ], [ -83.13, 42.25 ], [ -83.14, 42.24 ], [ -83.14, 42.21 ], [ -83.14, 42.18 ], [ -83.14, 42.13 ], [ -83.15, 42.1 ], [ -83.159492960999955, 42.046323548000011 ], [ -83.157012492999868, 42.000434876000099 ], [ -83.132506619999859, 41.941952808000032 ], [ -83.123448649999958, 41.920336405000015 ], [ -83.097377888999986, 41.875765483000073 ], [ -83.068413249999892, 41.847731019000015 ], [ -82.983793090999896, 41.808069357000086 ], [ -82.865221516999966, 41.752491353 ], [ -82.711122395999922, 41.680247701000063 ], [ -82.666913207999855, 41.669085592000023 ], [ -82.451319132999956, 41.67190195700006 ], [ -82.424860799999891, 41.676811219 ], [ -82.281355346999916, 41.743292949000171 ], [ -82.137746540999899, 41.809800517000085 ], [ -81.994241088999942, 41.876204733000058 ], [ -81.850735635999968, 41.942712301000071 ], [ -81.707281860999885, 42.009219869000077 ], [ -81.56372473199994, 42.075675761000021 ], [ -81.420219278999966, 42.142157491 ], [ -81.27666215099994, 42.208665060000016 ], [ -81.147884480999949, 42.228250427000042 ], [ -81.019158489000034, 42.247809957000044 ], [ -80.89038081899993, 42.267447002000061 ], [ -80.761654826999916, 42.287032369000087 ], [ -80.632877156999925, 42.306643575000052 ], [ -80.520233196999939, 42.323782098000073 ], [ -80.504151164, 42.326228943 ], [ -80.37537349499992, 42.345788473000098 ], [ -80.246595825999933, 42.365477194000071 ], [ -80.093168497999869, 42.420150859000053 ], [ -79.939767008999951, 42.474772848000065 ], [ -79.78639135799996, 42.529368999000042 ], [ -79.763006634999911, 42.537704928000046 ], [ -79.633015706999871, 42.584042664000016 ], [ -79.47964005599988, 42.638716329 ], [ -79.326186889999889, 42.693338318 ], [ -79.172759562999929, 42.748011984000094 ], [ -79.019383910999935, 42.802685649000068 ], [ -78.963056600999963, 42.84012522400004 ], [ -78.918950765999938, 42.889243673000131 ], [ -78.909054727999973, 42.930223084000012 ], [ -78.915255900999924, 42.94761220300002 ], [ -78.936339884999953, 42.960040385000141 ], [ -78.959956013999843, 42.966215719000054 ], [ -78.983520467999867, 42.976137593000033 ], [ -79.008350992999965, 42.991046245000071 ], [ -79.022019409999942, 43.002234193000042 ], [ -79.031967122999873, 43.01342214000001 ], [ -79.028246419999832, 43.034506124000032 ], [ -79.022019409999942, 43.049414775000059 ], [ -79.023259644, 43.05807057800007 ], [ -79.03075272699995, 43.066803894000067 ], [ -79.04186315999992, 43.075459697000078 ], [ -79.055531575999893, 43.0878878790001 ], [ -79.06294714399985, 43.096543681000099 ], [ -79.065272582999938, 43.105897116000044 ], [ -79.065737670999951, 43.120237326 ], [ -79.06142268999983, 43.130288392000068 ], [ -79.055583251999863, 43.13842743 ], [ -79.051604166999866, 43.146850688000079 ], [ -79.049330403999946, 43.159847310000146 ], [ -79.048606933999892, 43.170621846999985 ], [ -79.053774576999857, 43.260357971000161 ], [ -79.058425455999938, 43.27779876700005 ], [ -79.091627563999879, 43.342523499000094 ], [ -79.174309855999894, 43.464531555000079 ], [ -79.078992675999885, 43.498948060000146 ], [ -78.946184244999927, 43.546722921000146 ], [ -78.750821492999933, 43.617054546000048 ], [ -78.688086303999924, 43.631808167000152 ], [ -78.457273518999898, 43.630981344000155 ], [ -78.226460734999876, 43.63020619700012 ], [ -77.995673787999877, 43.629431051 ], [ -77.764835163999905, 43.628655904000063 ], [ -77.533996541999855, 43.627854920000104 ], [ -77.303209594999956, 43.627105612 ], [ -77.072370971999888, 43.626330465000073 ], [ -76.841532348999934, 43.625503642000076 ], [ -76.836002970999886, 43.628035788000048 ], [ -76.830473591999919, 43.630438741000034 ], [ -76.824892536999897, 43.632893372 ], [ -76.819363158999849, 43.635425517000066 ], [ -76.813782104999845, 43.637880148000129 ], [ -76.808304402999852, 43.640308940000054 ], [ -76.802723348999848, 43.642789409000059 ], [ -76.7971939709998, 43.645269876999947 ], [ -76.754354206999935, 43.700098572000137 ], [ -76.711514444999892, 43.755004781000117 ], [ -76.668674682999935, 43.809885152999989 ], [ -76.625886596999862, 43.864765523000031 ], [ -76.582995157999846, 43.919594218000022 ], [ -76.540207071999959, 43.974474589000074 ], [ -76.497367309999916, 44.029354960000028 ], [ -76.454630900999916, 44.084235332000091 ], [ -76.430032918999913, 44.103303935000035 ], [ -76.35008947799983, 44.151724752000099 ], [ -76.34440506999988, 44.158184306000088 ], [ -76.341356160999922, 44.165780742 ], [ -76.337118692999979, 44.173738911999969 ], [ -76.327765258999946, 44.181490377000067 ], [ -76.317171590999877, 44.185056051000011 ], [ -76.206635701999929, 44.217405498000019 ], [ -76.185758422999982, 44.225673727000107 ], [ -76.169325317999935, 44.242365214 ], [ -76.169738728999889, 44.247687887000069 ], [ -76.178058634999942, 44.272130840000074 ], [ -76.178678751999868, 44.278642070000117 ], [ -76.149791626999871, 44.304531962000034 ], [ -76.067264363999954, 44.347991842000013 ], [ -75.898695841999881, 44.399978333000021 ], [ -75.870325480999966, 44.408608297000086 ], [ -75.855701049999922, 44.422044170000056 ], [ -75.845417439999949, 44.439045715000042 ], [ -75.830948038999921, 44.464315491000043 ], [ -75.791183024999867, 44.496768291000087 ], [ -75.754621947999851, 44.527567444000027 ], [ -75.699689900999928, 44.581672668000046 ], [ -75.578198608999926, 44.661512757000089 ], [ -75.455958007999925, 44.74176625599997 ], [ -75.341830606999906, 44.816748759000042 ], [ -75.270232909999933, 44.863774313000064 ], [ -75.129647175999935, 44.925165914000068 ], [ -75.075593627999893, 44.9355012 ], [ -75.058721273999879, 44.941030578000053 ], [ -75.014899657999905, 44.965990296000044 ], [ -74.998647420999902, 44.972398173000052 ], [ -74.940201375999905, 44.987746074000064 ], [ -74.903743651999932, 45.005212707999981 ], [ -74.886509562999834, 45.009398499000049 ], [ -74.868474486999858, 45.010121969000011 ], [ -74.741557169999936, 44.998856507000035 ], [ -74.712961391999855, 44.999253648000128 ], [ -74.695875203999918, 44.998029684000038 ], [ -74.596113850999899, 44.998494772000051 ], [ -74.496352497999879, 44.999011536000133 ], [ -74.396616984999909, 44.999476623000049 ], [ -74.296881469999917, 44.999993388000043 ], [ -74.197145955999929, 45.000458476000063 ], [ -74.097384603999927, 45.000975240000045 ], [ -73.997649088999935, 45.001440328000065 ], [ -73.89788773699992, 45.001957093000058 ], [ -73.798152221999842, 45.002473857000041 ], [ -73.698416707999854, 45.002938945000061 ], [ -73.598655355999838, 45.003404032999981 ], [ -73.498919840999861, 45.003920797000063 ], [ -73.399158487999827, 45.004385885000083 ], [ -73.351340858999919, 45.004633645000084 ], [ -73.299422973999853, 45.004902649000066 ], [ -73.199687459999964, 45.005419414000059 ], [ -73.099951944999887, 45.005884502000079 ], [ -73.000268106999869, 45.006349590000099 ], [ -72.900480916999925, 45.006866354000081 ], [ -72.800693725999878, 45.007331442000101 ], [ -72.70095821199989, 45.007796530000121 ], [ -72.601274373999871, 45.008313294 ], [ -72.501487182999924, 45.008830058000086 ], [ -72.40175166899985, 45.009295146 ], [ -72.301964477999988, 45.009760233000016 ], [ -72.202228963999914, 45.010328674000071 ], [ -72.102545125999896, 45.010793762 ], [ -72.002809610999904, 45.011258850000011 ], [ -71.903074097000029, 45.011775615000012 ], [ -71.803286905999869, 45.012240703000124 ], [ -71.703551392, 45.012757467000014 ], [ -71.603815877999821, 45.013274231000089 ], [ -71.505848136999973, 45.013731075000045 ], [ -71.504080363999933, 45.013739319000109 ], [ -71.506612507999989, 45.037045390000095 ], [ -71.504752156999913, 45.052961731000053 ], [ -71.497259073999956, 45.066552633000022 ], [ -71.456589722, 45.110994365000103 ], [ -71.451215373999858, 45.121691386000016 ], [ -71.44599605399992, 45.140294902000051 ], [ -71.44160355699988, 45.150681865000159 ], [ -71.413026488999876, 45.186183574000054 ], [ -71.406566934999987, 45.204942119000094 ], [ -71.422689982999941, 45.217189433999984 ], [ -71.449044962999963, 45.226904603000094 ], [ -71.43881302899986, 45.233467510000118 ], [ -71.394888061999879, 45.241529033000127 ], [ -71.38124548299993, 45.250779114000025 ], [ -71.352099975999892, 45.278322653000139 ], [ -71.334323283999964, 45.288709616000048 ], [ -71.311533976999968, 45.294135641000061 ], [ -71.293395548999953, 45.292326966000154 ], [ -71.209369669999859, 45.254758199 ], [ -71.18513342299994, 45.248557027000061 ], [ -71.160328735999968, 45.245766500000059 ], [ -71.141725219999927, 45.252329407000083 ], [ -71.111029418999919, 45.287107646000017 ], [ -71.095242269999858, 45.300905253000053 ], [ -71.085552937999964, 45.304212545000055 ], [ -71.084951960999945, 45.304292578000059 ], [ -71.064210572, 45.30705474900013 ], [ -71.054417887999875, 45.310362040000122 ], [ -71.036667033999976, 45.323384501000035 ], [ -71.027597818999908, 45.334649963000011 ], [ -71.016539062999925, 45.343124898000077 ], [ -70.993155477999935, 45.347827454000132 ], [ -70.968118245999847, 45.34452016200003 ], [ -70.951607626, 45.332014466000018 ], [ -70.90690751199989, 45.246231588000079 ], [ -70.89241227299992, 45.234604390000015 ], [ -70.87435136, 45.245663148000027 ], [ -70.870604817999919, 45.255274964 ], [ -70.872491007999926, 45.274188537999947 ], [ -70.870243082999934, 45.283128561000126 ], [ -70.862620808999907, 45.290363261000039 ], [ -70.842389485999917, 45.301215312000068 ], [ -70.835258137999929, 45.309793599000066 ], [ -70.832080037999916, 45.328552144000099 ], [ -70.835464844999919, 45.373097229000024 ], [ -70.833837036999853, 45.393096008 ], [ -70.825982217999893, 45.410459290000091 ], [ -70.812985595999919, 45.423430074000031 ], [ -70.79487300699985, 45.430406392 ], [ -70.771876993999967, 45.430044658000028 ], [ -70.752550007999886, 45.42234487 ], [ -70.71800431399987, 45.397281799000069 ], [ -70.696739461999897, 45.388651836000108 ], [ -70.675784667999935, 45.38870351200007 ], [ -70.65358964099984, 45.395473124000063 ], [ -70.641316487999816, 45.408495585000075 ], [ -70.650256511, 45.427460836000094 ], [ -70.668162394999811, 45.439036357000077 ], [ -70.707384806999954, 45.456399638000057 ], [ -70.722836059999892, 45.470920716000066 ], [ -70.732008626999885, 45.491591289000048 ], [ -70.730329142999949, 45.507972717000115 ], [ -70.68679174899998, 45.572723287000095 ], [ -70.589614216999877, 45.651788229 ], [ -70.57240596599992, 45.662278544000038 ], [ -70.514735066999947, 45.681708882999978 ], [ -70.484762735999908, 45.699640605000113 ], [ -70.472799641999899, 45.703568014000034 ], [ -70.45042374699986, 45.70372304400005 ], [ -70.439132446999949, 45.705893453000122 ], [ -70.419314534999799, 45.71690053300005 ], [ -70.407351441, 45.731524964000101 ], [ -70.40244217999998, 45.749663391000105 ], [ -70.403940795999858, 45.771160786999985 ], [ -70.408281616999943, 45.78165110300003 ], [ -70.413681803999921, 45.787697245999979 ], [ -70.417169962999949, 45.793795065000083 ], [ -70.415232096999873, 45.804388733000053 ], [ -70.409935262999838, 45.810744935000116 ], [ -70.389807291999873, 45.825059306000036 ], [ -70.312654378999923, 45.867640686000037 ], [ -70.283172973999925, 45.890481669 ], [ -70.262528238999877, 45.923037821000072 ], [ -70.255939493999819, 45.94887603800003 ], [ -70.263148355999903, 45.956834208000103 ], [ -70.280434123999896, 45.959314677 ], [ -70.303946899999843, 45.968616435000072 ], [ -70.31629756699995, 45.982982483000072 ], [ -70.316891845999947, 45.999002177000165 ], [ -70.306143147999862, 46.035330709000057 ], [ -70.303636840999928, 46.038482971000043 ], [ -70.294309244999923, 46.044942526000142 ], [ -70.292009643999876, 46.048663229 ], [ -70.293017333999913, 46.054037578000035 ], [ -70.296092081999902, 46.05786163400002 ], [ -70.300794636999939, 46.06173736600006 ], [ -70.30477372299994, 46.065974834000102 ], [ -70.311362467999899, 46.071865947000028 ], [ -70.312628540999981, 46.079565735000159 ], [ -70.30032954999993, 46.089280905000081 ], [ -70.264440266999912, 46.106592510000098 ], [ -70.249479939999929, 46.120596823000113 ], [ -70.244002238999954, 46.141009013000136 ], [ -70.249247395999916, 46.162764791000065 ], [ -70.263329223999847, 46.183228659000072 ], [ -70.284800781999891, 46.191858622000034 ], [ -70.280899210999905, 46.211857401000017 ], [ -70.253407348999957, 46.251493226000022 ], [ -70.236173258999941, 46.288338522000096 ], [ -70.223693400999863, 46.300792542000053 ], [ -70.201885945999962, 46.305495097000097 ], [ -70.1995088299999, 46.315261943000088 ], [ -70.197028360999909, 46.336862692 ], [ -70.188398396999929, 46.358411764000046 ], [ -70.167417764999939, 46.368178610000129 ], [ -70.15305171699994, 46.372829488 ], [ -70.074322672999898, 46.419544983 ], [ -70.061816976999879, 46.445409037 ], [ -70.050086425999964, 46.511270651000054 ], [ -70.032723144999892, 46.609765930000073 ], [ -70.0236280929999, 46.661287334000079 ], [ -70.007763427999905, 46.704075419000098 ], [ -69.989960896999946, 46.72169708300008 ], [ -69.89970800899998, 46.811562397999985 ], [ -69.809403441999919, 46.901298523000072 ], [ -69.71909887699988, 46.991086324000079 ], [ -69.628794311999926, 47.080796611000046 ], [ -69.538463907999855, 47.170610250000031 ], [ -69.448159343, 47.260346375000026 ], [ -69.357906453999931, 47.350134176000033 ], [ -69.267627726999919, 47.439844462000039 ], [ -69.250910401, 47.452918600000075 ], [ -69.237267822999868, 47.458809713000051 ], [ -69.221971598999929, 47.459688213000028 ], [ -69.069655313999931, 47.431886292000065 ], [ -69.054023193999868, 47.418398743000083 ], [ -69.054333251999964, 47.389253235000034 ], [ -69.066192993999948, 47.329670309000079 ], [ -69.06513362599992, 47.296339010000025 ], [ -69.063559775999934, 47.290809266000061 ], [ -69.057485514999868, 47.269467265 ], [ -69.040199747999893, 47.249055074000061 ], [ -68.906228596999895, 47.190221457000064 ], [ -68.889717976999947, 47.190609029000065 ], [ -68.76181880799983, 47.237040304000097 ], [ -68.717790486999888, 47.245231018000126 ], [ -68.668801229999886, 47.243422343000027 ], [ -68.644203246999965, 47.245282694000039 ], [ -68.625599731999841, 47.255204570000039 ], [ -68.607926391999854, 47.269829000000129 ], [ -68.585240437999886, 47.282489726000058 ], [ -68.539661824999897, 47.299853008000049 ], [ -68.518009398999908, 47.304762268000019 ], [ -68.492016153999955, 47.307552796000081 ], [ -68.466746378999972, 47.305692444000051 ], [ -68.435327107999896, 47.291274720000047 ], [ -68.422563029999935, 47.293109233000031 ], [ -68.410212361999911, 47.297424215000014 ], [ -68.385614380999826, 47.301713359000068 ], [ -68.383392292999957, 47.307139384000074 ], [ -68.384839233999884, 47.315872701000039 ], [ -68.382048705999878, 47.327809957000056 ], [ -68.3478389079999, 47.358505758000014 ], [ -68.299728148999932, 47.367833354000062 ], [ -68.246449747999918, 47.360572816000065 ], [ -68.197047078999944, 47.341400859000025 ], [ -68.18433467599985, 47.333132629000026 ], [ -68.156067667999878, 47.306674296000011 ], [ -68.145060587999936, 47.301454977000027 ], [ -68.115398315999911, 47.292282410000027 ], [ -68.101445679999969, 47.286184591000072 ], [ -68.039382283999856, 47.245231018000126 ], [ -67.993183552999938, 47.223216859000075 ], [ -67.962436075999861, 47.197688700000121 ], [ -67.953702758999952, 47.186629944000124 ], [ -67.949982055999911, 47.17293568900007 ], [ -67.943419148999894, 47.164538270000023 ], [ -67.899132446999914, 47.138777568000116 ], [ -67.870607055999898, 47.107358297000054 ], [ -67.854742390999903, 47.097849834000066 ], [ -67.813556274999954, 47.081907654000069 ], [ -67.8086986899999, 47.075138042000027 ], [ -67.80518469299993, 47.035631409000104 ], [ -67.802549194999926, 46.90124684700006 ], [ -67.800017049999965, 46.766784770000015 ], [ -67.797433227999917, 46.632296855000085 ], [ -67.794849406999802, 46.497860616000118 ], [ -67.792317261000022, 46.363476054000074 ], [ -67.789733439999893, 46.229013978000133 ], [ -67.787149617999958, 46.094551900000077 ], [ -67.784565796999829, 45.960141500000105 ], [ -67.782757120999918, 45.950529684000031 ], [ -67.776555949999874, 45.942933248000031 ], [ -67.767460896999978, 45.93595693000006 ], [ -67.75965775599991, 45.928567200000032 ], [ -67.757849080999904, 45.919472148000139 ], [ -67.769424601999802, 45.903969218000036 ], [ -67.78735632399993, 45.890016580999983 ], [ -67.799241902999924, 45.875650534 ], [ -67.792627318999834, 45.85890737000004 ], [ -67.776090861999961, 45.840820618000087 ], [ -67.772835245999929, 45.828056540000034 ], [ -67.779863240999873, 45.815705872000102 ], [ -67.794125935999929, 45.799169413000016 ], [ -67.806269897999968, 45.781754455999973 ], [ -67.811127483000035, 45.766509908000103 ], [ -67.807045044, 45.712869772000104 ], [ -67.800120402, 45.699847311 ], [ -67.786116088999876, 45.691217346000109 ], [ -67.761776489000013, 45.680106913000039 ], [ -67.748030558999957, 45.677781474000057 ], [ -67.740744180999855, 45.68362091100002 ], [ -67.73552486199992, 45.690752258000089 ], [ -67.727980102999894, 45.692250875000084 ], [ -67.717386433999906, 45.685377910000057 ], [ -67.710461791999904, 45.675404358 ], [ -67.704829060999913, 45.664190572000081 ], [ -67.690773070999825, 45.653803609000171 ], [ -67.660335652999876, 45.637370504000032 ], [ -67.607522338999871, 45.620058900000032 ], [ -67.551866820999976, 45.610447083000047 ], [ -67.506391561999934, 45.609826966000121 ], [ -67.475799112999951, 45.612979228000107 ], [ -67.449960896999912, 45.610808817000013 ], [ -67.431305705000014, 45.597941386000016 ], [ -67.422107299999979, 45.568795878000067 ], [ -67.426189738, 45.533449198999989 ], [ -67.44303625499991, 45.522183736000102 ], [ -67.46753088399997, 45.508282776000129 ], [ -67.493214070999912, 45.493141581000096 ], [ -67.482310343999913, 45.455521139000098 ], [ -67.428825236999927, 45.387049866000069 ], [ -67.434561319999943, 45.350307923000031 ], [ -67.459055948999904, 45.318423564000142 ], [ -67.468667765999882, 45.301835429000093 ], [ -67.475023966999842, 45.282353414000092 ], [ -67.471303263999886, 45.266282044000036 ], [ -67.427585001999972, 45.236568095000031 ], [ -67.390533, 45.193108216000063 ], [ -67.356271525999873, 45.165926412000118 ], [ -67.319219522999916, 45.153885804000119 ], [ -67.284647989999954, 45.16969879200014 ], [ -67.279583699999918, 45.179052226000074 ], [ -67.279221964999948, 45.187372131000124 ], [ -67.27720658399987, 45.195071920000068 ], [ -67.267336384999936, 45.202513326000059 ], [ -67.254985718999933, 45.20504547200013 ], [ -67.242428344999936, 45.202565003000132 ], [ -67.219070597999888, 45.19212636300005 ], [ -67.206166207999857, 45.189400586000019 ], [ -67.176014777999953, 45.178656317000083 ] ] } }
]
}
