{"type":"FeatureCollection","features":[{"type":"Feature","id":182,"geometry":{"type":"MultiPolygon","coordinates":[[[[-99.66197317000001,43.002436416000073],[-99.661900499000012,43.002361868999976],[-99.658105889000012,42.998469050000011],[-99.608011830999999,42.997357604000001],[-99.589596862999997,42.989285793000043],[-99.575524347999988,42.98194659399995],[-99.561806810999997,42.981194651000045],[-99.552948164999989,42.976284936000042],[-99.542170639999995,42.972003390000012],[-99.527001070999972,42.973297620999958],[-99.515115744000013,42.970192999999988],[-99.505182042000001,42.967031962000014],[-99.497470081000017,42.968971754999949],[-99.488662207000004,42.972376510999986],[-99.481984988000022,42.971703932000032],[-99.475188493000019,42.968739080999995],[-99.464220497999975,42.968186040999996],[-99.459356983000021,42.972338853999979],[-99.451598600000011,42.973416305000015],[-99.434299140999997,42.971315695999962],[-99.424199585999986,42.972456401999978],[-99.41036853899999,42.96939570900004],[-99.400757008000028,42.964783035999972],[-99.39458464400002,42.958640754999976],[-99.385712231000014,42.953145913],[-99.376451266999993,42.947661043999965],[-99.366252883000016,42.939045028999985],[-99.357471884000006,42.935267109000023],[-99.350091736000024,42.936041143000033],[-99.339692153999991,42.938904674000007],[-99.333309582000027,42.936207882000019],[-99.327650257000016,42.932343675000034],[-99.322600253000019,42.925019937999942],[-99.314617526999996,42.921504465000012],[-99.303311306000012,42.921807161999965],[-99.293295909999983,42.916623200000018],[-99.284146260999989,42.913136879999996],[-99.277308263999998,42.909014785000039],[-99.267854844999988,42.907256783999983],[-99.258365911999988,42.906359730000005],[-99.250333758000011,42.909727244999956],[-99.242189481000025,42.910801910000032],[-99.234254325999984,42.908140802999959],[-99.227712747999988,42.901999929999981],[-99.219361834999972,42.898774924999991],[-99.207572943000002,42.897073202000044],[-99.201864182000008,42.900090328999994],[-99.199813941999992,42.906168404000056],[-99.194548703000009,42.91032124100002],[-99.183620002999987,42.910316376000019],[-99.174654050000015,42.91054703399999],[-99.167034204999993,42.91447219199997],[-99.157867523999982,42.918723260999997],[-99.148134108000022,42.91925845999998],[-99.140551129000016,42.915721795999964],[-99.132915174000004,42.911038443999992],[-99.123384857000019,42.907550087000025],[-99.110977451999986,42.909297524999964],[-99.102737787000024,42.908357119000001],[-99.095574821000014,42.905380969999975],[-99.083398129999978,42.903677184000031],[-99.07135384999998,42.904837808000032],[-99.062269984000025,42.902481268000045],[-99.054680351999991,42.898652694000006],[-99.045260418999987,42.897450780999968],[-99.033216600999992,42.898607698999996],[-99.019912304999991,42.897786048999961],[-99.00757117400002,42.892349362999973],[-98.997686073000011,42.889433863999969],[-98.984607309000012,42.884873463999988],[-98.976193696999985,42.879912490000017],[-98.969614933999992,42.872324830000011],[-98.962711604999981,42.866179027000022],[-98.955147668000009,42.864466775999979],[-98.948648678999973,42.858597386999975],[-98.944852227000027,42.852089418000006],[-98.936910732000001,42.848835833000045],[-98.921557307,42.845470474000031],[-98.912022421000017,42.841392317000015],[-98.906358147999981,42.836648560000015],[-98.897914824000011,42.83971603499996],[-98.88679393000001,42.843993117000004],[-98.874268947000019,42.842850905999981],[-98.862461967999991,42.840256328000002],[-98.85440352400002,42.834131295999995],[-98.843037013000014,42.832672269],[-98.826657108000006,42.832474687000001],[-98.815644690999989,42.830144373000053],[-98.803308645000016,42.824113567000012],[-98.79032768899998,42.821251935000014],[-98.778209878999974,42.820377765999964],[-98.769112254999982,42.81713954800005],[-98.760381172999985,42.813318682999999],[-98.749067379999985,42.81299747700001],[-98.731913942999995,42.812804664999994],[-98.714748971999995,42.812322836000007],[-98.699726610000027,42.812477805999983],[-98.691447066000023,42.810076698999971],[-98.682401024000001,42.80797859200004],[-98.674408803000006,42.802988116999956],[-98.66727625,42.799986755000035],[-98.658988024999985,42.79729678700005],[-98.649978788999988,42.796056201999974],[-98.638910703000022,42.791990138000003],[-98.624296317000017,42.786851032999991],[-98.614065617999984,42.784199387000044],[-98.60385803600002,42.782120190999947],[-98.593195298000012,42.778328391999992],[-98.593625798999994,42.808458262999942],[-98.594105470999978,42.841996171999995],[-98.588504946,42.844631589000052],[-98.584534034000001,42.846499880000032],[-98.575707293999983,42.850126677000006],[-98.568717327999991,42.850846014000012],[-98.560525578000011,42.850729300999937],[-98.552169705999972,42.846312545999993],[-98.543934911999997,42.845048195000047],[-98.532616823000012,42.844707164999996],[-98.524068828999987,42.845455931999965],[-98.513572947,42.846243773999994],[-98.499549474999981,42.846528472999935],[-98.492180206,42.847538004999954],[-98.489532059999988,42.848212601999997],[-98.484842679999986,42.84940701400005],[-98.476619400000004,42.848424818000048],[-98.468754155999989,42.846574362999974],[-98.460931553000023,42.845869970999992],[-98.453982891999999,42.847729386000019],[-98.446139333000019,42.846450773000036],[-98.439054242999987,42.844582983000038],[-98.433044246999998,42.840111939999922],[-98.423129786000018,42.835430441999975],[-98.416005078000012,42.832414700000015],[-98.405899454000007,42.833185782000008],[-98.399319498000011,42.834461257999948],[-98.388875090000013,42.836671770000052],[-98.383144684000001,42.836620373000017],[-98.378737914999988,42.836580668000018],[-98.36732063300002,42.833357949999971],[-98.358221013000005,42.829516227999974],[-98.348753136000028,42.826254544999998],[-98.348881189999986,42.785518184999972],[-98.340677791000019,42.784813529000047],[-98.341201583999975,42.755255803999965],[-98.337852677000001,42.75479554600004],[-98.310288260000007,42.751003516000075],[-98.290333772999986,42.746116463000007],[-98.274846971999978,42.738992247999988],[-98.263657319000004,42.734177891999991],[-98.249276667999993,42.730855196999961],[-98.237489976999996,42.72748376700001],[-98.226281108000023,42.721949175999981],[-98.214378682000017,42.714991614999981],[-98.205227795999974,42.712765054000002],[-98.196077517999981,42.71053780699998],[-98.179652646000022,42.703896488999959],[-98.165837882000005,42.697685257000003],[-98.152734875000021,42.693372608000011],[-98.139972697000019,42.689530790999974],[-98.122120773000006,42.688644328000017],[-98.107583304000002,42.690089308999987],[-98.100478172999999,42.693761618000032],[-98.098972763000006,42.694539587000016],[-98.097260505999998,42.696732447999977],[-98.093675132999977,42.701323613000014],[-98.094350050000003,42.712548134999984],[-98.094150110999976,42.726895117000026],[-98.095104650999986,42.736680188999962],[-98.099889571000006,42.744487529000047],[-98.099812634999978,42.752377524000018],[-98.098792930000002,42.76123967499997],[-98.096266324999988,42.763434074000017],[-98.104726911000014,42.764246137999976],[-98.113911664,42.767435676000019],[-98.118579983000018,42.771419337000012],[-98.124432344000013,42.771796752000029],[-98.136892629999977,42.775884293999987],[-98.148187484999994,42.784054621999978],[-98.155592456000022,42.792291906999999],[-98.162991525999985,42.800289751999991],[-98.171968143000015,42.806825122000042],[-98.185426888999984,42.811368231999985],[-98.19733560200001,42.818088805000045],[-98.21202476000002,42.830256168999995],[-98.225508233000028,42.845072736000049],[-98.230441541999994,42.846895939999975],[-98.239731880000022,42.848831216999983],[-98.246984849,42.848125776000003],[-98.255205620000027,42.845298771999964],[-98.271430840999983,42.848634613000002],[-98.285904904999995,42.853913001000045],[-98.312801492999995,42.865076805000022],[-98.334869998999977,42.871736805000005],[-98.347828691000018,42.877992694999989],[-98.363094685000021,42.883247010999909],[-98.378841989000023,42.887342864999994],[-98.397067252999989,42.895213061999961],[-98.40972814700001,42.900129711999995],[-98.431093718,42.908316058999986],[-98.455359332,42.917397235000003],[-98.476251441999977,42.926541281999988],[-98.491314247999981,42.932739968000007],[-98.501980412000037,42.939599503000053],[-98.507934245999991,42.945674177000001],[-98.514196774000027,42.953004247999992],[-98.516320108000002,42.960991852000028],[-98.525959930999989,42.968061271999986],[-98.535074150000014,42.974949478999967],[-98.545586125999989,42.984293891999961],[-98.560367940000006,42.996225914999989],[-98.566007113000026,43.007389938999964],[-98.573830643000008,43.027838492000015],[-98.580164183000022,43.050076037000025],[-98.587493923000011,43.057570649999995],[-98.602924393000023,43.065468432000017],[-98.619265574999986,43.069903715000009],[-98.629532805999986,43.072362860999981],[-98.646929809000028,43.070462991999989],[-98.660126548000008,43.067886145999992],[-98.674716978999982,43.06757205800001],[-98.688677133999988,43.066288483999998],[-98.702096145999974,43.069246817000042],[-98.718402593000022,43.079023225000057],[-98.741749496000011,43.09495108400003],[-98.756701372000009,43.103222837999994],[-98.776224393999996,43.114640623999989],[-98.801981441999999,43.13757656600005],[-98.810813934000009,43.142729722999974],[-98.825525501000016,43.144880842000013],[-98.858626134000019,43.143549016000058],[-98.870176491000009,43.145002955999942],[-98.882725051000023,43.151403319999979],[-98.900110669000014,43.166865981000001],[-98.907381825000016,43.177557797000041],[-98.911736393000012,43.186326146999981],[-98.916731969000011,43.195385072999969],[-98.920980821000001,43.206449412000012],[-98.921625649000021,43.221115683999969],[-98.923936046999984,43.230848781000056],[-98.928545798000016,43.235786817000019],[-98.937638441999979,43.23801900400003],[-98.957515734000026,43.238159170000074],[-98.958079753999982,43.23820327400005],[-98.953899607999972,43.01556197099999],[-99.66197317000001,43.002436416000073]]],[[[-102.96261512199999,46.401486830000053],[-102.96894655800003,46.403066856999992],[-102.976055105,46.403327613999956],[-102.98311659000001,46.403164617000009],[-102.98940154600001,46.404320283000033],[-102.99568673300001,46.405475643999978],[-103.000631075,46.408405840000036],[-103.001902391,46.408763834000048],[-103.00642304000002,46.410651743000003],[-103.006736338,46.39513330700003],[-103.01056526000002,46.01290654400001],[-102.99874197600002,46.013084680000034],[-102.995545209,45.816130730000019],[-103.00076011300001,45.556968618999953],[-103.00077271399999,45.461395055999994],[-103.00078230899999,45.388404964000038],[-103.00079220200001,45.312978888999979],[-103.00186063500001,45.14296664200004],[-103.00443294600001,45.019392326999984],[-103.00314233900002,44.966221624999989],[-103.00584811200002,44.729616770999954],[-103.00647537200001,44.698281492999975],[-103.00882137899998,44.580798483000088],[-103.00770924400001,44.519351487000023],[-103.005465716,44.395017007999996],[-102.98579153999998,44.381817571999974],[-102.95970654799999,44.367017453999992],[-102.93986734800001,44.359988762999954],[-102.90846516300002,44.36013331300002],[-102.89385540299998,44.356018532000014],[-102.876041289,44.353928692999986],[-102.85257317899999,44.356350501999955],[-102.83521968299999,44.358628660000043],[-102.82639562899999,44.365990123000017],[-102.81748208200003,44.367427227999997],[-102.803988344,44.36585919499997],[-102.783795962,44.361398334999983],[-102.76775238300002,44.360919489000054],[-102.75285952299998,44.363819310999979],[-102.74154972999997,44.367864904000008],[-102.72136117999997,44.368557147000004],[-102.69378759799997,44.370019711000047],[-102.66721490899999,44.370849799999959],[-102.63736267399997,44.370890395999972],[-102.62192558900001,44.371126017999984],[-102.60125300099998,44.377560408999983],[-102.5895744,44.383331739000049],[-102.57080602600001,44.384503055999978],[-102.55830020399998,44.38316362399997],[-102.54374549800002,44.378411063999906],[-102.52363411499999,44.37776743000002],[-102.50099442200002,44.383827355999955],[-102.48109408800002,44.389589710999999],[-102.47283107300001,44.390681850000014],[-102.46606700299998,44.389689489000013],[-102.45443614300001,44.382636343000023],[-102.44864244000001,44.375284709000063],[-102.43786630900001,44.371436545000016],[-102.42722079100002,44.371595598999932],[-102.420095446,44.375016280999951],[-102.41754816600002,44.384321838999973],[-102.42190247100001,44.387924301999995],[-102.42883486199997,44.390630965999954],[-102.42703212800001,44.393972438000056],[-102.41514756599997,44.397825377999986],[-102.40119838200002,44.399678764999983],[-102.39013702900002,44.395649919000014],[-102.38204719499998,44.39472006700003],[-102.37487966499998,44.397757619000011],[-102.37060247599999,44.405810498000008],[-102.37166999099998,44.424872089000033],[-102.38085432600002,44.431482073000019],[-102.38344090999999,44.438806466000038],[-102.38221751499999,44.445367071000042],[-102.37995451500001,44.449495096999996],[-102.36880231599999,44.450056372999974],[-102.36127919799998,44.446802784999996],[-102.35345115400003,44.434962671999962],[-102.34692357699998,44.428217707999941],[-102.33505252399999,44.429576812000008],[-102.33017556499999,44.431541009999975],[-102.32271112299998,44.437074726999995],[-102.31912372599999,44.438591758999983],[-102.318577081,44.421989841999981],[-102.31606062499998,44.412558192999953],[-102.31761753299998,44.403878840000004],[-102.32301789299999,44.396345384000007],[-102.32314817000002,44.389457325000009],[-102.31884941599998,44.380878892999981],[-102.31909094100001,44.375132064000049],[-102.32557386399998,44.373278753000058],[-102.33528284900001,44.372856571999947],[-102.34083969,44.369710667000021],[-102.34574678899997,44.359906193999961],[-102.34506616700003,44.350190637000047],[-102.34441725800002,44.343532123999985],[-102.34910169199998,44.339664610999968],[-102.35804022500002,44.338450653000002],[-102.36177960800001,44.33310066300001],[-102.36058052400001,44.326278456000026],[-102.35887523100003,44.316996223000046],[-102.36583011699997,44.311866351000013],[-102.37361161000001,44.309753360000002],[-102.38171345900003,44.308197254999932],[-102.38720659900002,44.304478183000029],[-102.38790081299999,44.295265653999977],[-102.37924605000001,44.288437505999973],[-102.36827926699999,44.285166966000048],[-102.36041259299998,44.283651403000015],[-102.35789041599998,44.276895238999998],[-102.35882973899999,44.270155897000009],[-102.36585395200001,44.26578666399999],[-102.36696414599999,44.258082419999973],[-102.37512414999999,44.251743078999951],[-102.385344245,44.244725205000002],[-102.39412339500001,44.239309072999994],[-102.40607682199999,44.233731093000046],[-102.411132205,44.225634143999976],[-102.41108457799999,44.217031344000048],[-102.41383197900001,44.209816163999996],[-102.41880718700003,44.203634841000024],[-102.42087443999998,44.194923981999992],[-102.415801004,44.186576492],[-102.406706558,44.177859431999984],[-102.40493952200001,44.170682014000015],[-102.40711959700002,44.163112654999992],[-102.41347232599998,44.154757083000007],[-102.41480194399999,44.146656826999994],[-102.41188164499999,44.141259117999994],[-102.41513291699999,44.136503462000007],[-102.42325206499999,44.132647079999998],[-102.42484422299998,44.124532926000043],[-102.42317247800003,44.115628811999947],[-102.41723776999999,44.106559367999957],[-102.40787149699997,44.097664297000023],[-102.41231337900001,44.088830934000015],[-102.416884783,44.081329541999956],[-102.42427746499999,44.08095239899999],[-102.43083856200002,44.082912641999997],[-102.44102156399998,44.083922144000006],[-102.45048907600001,44.08305471100001],[-102.45843036600002,44.077482827999958],[-102.46267531199999,44.069422212999974],[-102.457871109,44.058382911000031],[-102.45547900399998,44.052958274000012],[-102.45646141499998,44.046786509999968],[-102.46322891099999,44.04280433800001],[-102.472426644,44.039270573999985],[-102.47794877799998,44.030760340999997],[-102.47400201400001,44.020346306000008],[-102.470046287,44.015193410999984],[-102.47669713300002,44.002033239000006],[-102.48916384900002,43.986084932000004],[-102.50780209099997,43.976320106000024],[-102.52860397900002,43.972370839],[-102.54772974899998,43.970227353999981],[-102.55708437099997,43.95251907800003],[-102.556935366,43.937793543000019],[-102.56233040900003,43.93349338299997],[-102.580409304,43.931590212999993],[-102.59419650000001,43.929144510999969],[-102.59624932899999,43.924109285999954],[-102.59983082299999,43.92169046499999],[-102.61806017499998,43.909374475000035],[-102.63272174100001,43.897309643000035],[-102.64699334900003,43.889282098000052],[-102.66689997999998,43.887268699000003],[-102.67665745300002,43.886941041999961],[-102.68715714000001,43.883510950999998],[-102.69261686500001,43.879966202999981],[-102.69349675000001,43.873029379999949],[-102.68636693600001,43.865371543000002],[-102.68198577800001,43.85871514799998],[-102.68556615400001,43.849720270999981],[-102.69491408200004,43.835057994000024],[-102.71069528,43.813542168000048],[-102.72397101000001,43.800994607999982],[-102.73290062799998,43.791422554999983],[-102.74099501400002,43.780171741999972],[-102.749094458,43.775428296000015],[-102.76220207400002,43.768020892999999],[-102.76965158199999,43.760200181000002],[-102.77261093599998,43.750468260000005],[-102.780189178,43.74072513700002],[-102.78847954000003,43.72831023900001],[-102.79179609099998,43.715685973000014],[-102.795696792,43.70351905400004],[-102.79665415900001,43.702150943000028],[-102.75322574,43.702988894999955],[-102.209290141,43.712207295999974],[-102.20206174800001,43.717755866999944],[-102.19376653500001,43.724654192999928],[-102.18150317499999,43.727423102999978],[-102.16915805999997,43.729329828000019],[-102.157567051,43.732928069000032],[-102.147997309,43.739020649000039],[-102.13540815599998,43.738341099999985],[-102.12293946,43.738951768999996],[-102.11336564200002,43.745041644000068],[-102.10081562200003,43.744789120000014],[-102.10022180700003,43.744818063000018],[-102.08920638299998,43.728921551999967],[-102.08648058099999,43.738135546000045],[-102.07880431699999,43.745427650000046],[-102.06863158900001,43.751542880999999],[-102.05703118899999,43.755131692000013],[-102.04432121399998,43.753151498999998],[-102.032681357,43.749821227000048],[-102.02155772499998,43.745600245999981],[-102.00774159899998,43.744534492],[-101.99613911799997,43.748117708999999],[-101.984535376,43.751699831000032],[-101.97218003900002,43.753587071999981],[-101.95994102899999,43.756764689000043],[-101.94900570300001,43.761176253000031],[-101.93810778599999,43.766017363000017],[-101.92559325799999,43.766177839000079],[-101.91447373400001,43.761947473000014],[-101.90280025999999,43.758174648000022],[-101.890364256,43.759192708],[-101.88009493700002,43.76443139300001],[-101.869152993,43.768835935000077],[-101.85679114700002,43.770711749999961],[-101.84515769500001,43.76736417100004],[-101.83563441000001,43.760890791000016],[-101.82327310099998,43.762763326000027],[-101.81497068900001,43.770066574000005],[-101.80272104900001,43.773228752999998],[-101.78942109500004,43.771250314999989],[-101.778309476,43.767007913999961],[-101.77109364799998,43.759558770999988],[-101.75865535999998,43.760563764999979],[-101.74707417399998,43.764554411000013],[-101.73596641300004,43.760308210000034],[-101.72434095099999,43.756949368000008],[-101.71219739700001,43.754477754999961],[-101.70053686199998,43.750686060000014],[-101.688877671,43.74689325800005],[-101.67621761200002,43.745306357999972],[-101.66366936600002,43.745010069999971],[-101.65078611899997,43.747753775999989],[-101.64614197100002,43.756176970000027],[-101.64027133000002,43.764222779999983],[-101.63131732800002,43.771109978000034],[-101.61902190900004,43.773823580999967],[-101.60736332200003,43.770023343999952],[-101.607289892,43.769162083999987],[-101.59489207199999,43.763664725000012],[-101.58526599599998,43.769713917999994],[-101.57296894199999,43.772423012999973],[-101.56063446399997,43.77470024899992],[-101.547704796,43.777002588000009],[-101.53544108699998,43.780138609999938],[-101.52317620899998,43.783273416999997],[-101.51087407,43.785976362],[-101.49860693699998,43.78910873600001],[-101.486969074,43.792644509999995],[-101.47532996199999,43.796179183999989],[-101.46295187700002,43.798016075000014],[-101.46310883400002,43.807085613000034],[-101.472007383,43.81361269699994],[-101.47097606400001,43.822733906999979],[-101.45999715099998,43.827102280999974],[-101.44743431699999,43.826784391999979],[-101.434835986,43.826034605000032],[-101.42174971200001,43.826601206999996],[-101.40915171099999,43.825848842999974],[-101.39753142799998,43.822460086999982],[-101.38525210699999,43.825581183999972],[-101.37272513800002,43.825686470000029],[-101.36271550800002,43.820064702999979],[-101.350119436,43.819306404999999],[-101.33783845599999,43.822422879999905],[-101.32566255,43.819483450000007],[-101.31509795000001,43.814313772999981],[-101.30250353100001,43.813550689000031],[-101.29036550799998,43.811038478999961],[-101.27714268199998,43.809867254000011],[-101.26814453999998,43.816727945999993],[-101.268904105,43.826203111999995],[-101.257911224,43.830553774000059],[-101.24524560499998,43.828923590999977],[-101.234159535,43.824633459999959],[-101.22152986499998,43.82343156600006],[-101.21252406899998,43.83028811399997],[-101.205369679,43.837931246999979],[-101.192874136,43.838449277000038],[-101.180446313,43.839827464000017],[-101.16947919799998,43.844600977999995],[-101.16354243500001,43.852623177999973],[-101.15575087399998,43.859857004000048],[-101.14338568099998,43.862092855999997],[-101.13796091299997,43.861450975999986],[-101.10492301300002,43.865748351000036],[-101.09571334899999,43.876157413000023],[-101.08362137900002,43.879325085999966],[-101.07081019100002,43.88118197699994],[-101.058716097,43.88434722600001],[-101.04672300499999,43.880814239999971],[-101.03643960900001,43.87542674200003],[-101.02359381999997,43.876833999999953],[-101.01276593699998,43.872358817000041],[-101.002486644,43.866968462999985],[-100.98960798899998,43.867927420000044],[-100.97669524899999,43.868440201999967],[-100.96474309799999,43.865344152000006],[-100.96161150799998,43.856544202000016],[-100.95776533600002,43.846433719999965],[-100.95043379200001,43.839137847000046],[-100.93745954399998,43.838756856999993],[-100.92461880799999,43.840154079999976],[-100.916512942,43.847164948999975],[-100.91598252400001,43.856555631999974],[-100.90787371300001,43.863565748999946],[-100.894894894,43.86318037799996],[-100.88637192499999,43.856373823000006],[-100.88629184000001,43.847007207999994],[-100.874380852,43.844347343000017],[-100.86469901700002,43.83847667499996],[-100.86400746999999,43.829133604999974],[-100.85261662400001,43.825113015999982],[-100.84352126700003,43.818771821000013],[-100.84098974800003,43.809499513999981],[-100.83907325000001,43.800203299999978],[-100.82665632499999,43.798897236999956],[-100.814174745,43.796700045000016],[-100.80098228000003,43.793190273999933],[-100.79131452000001,43.787313446999974],[-100.79066790299999,43.786891966000006],[-100.78656066799999,43.772770344000037],[-100.77360046799998,43.772372377999957],[-100.76484050200003,43.778952656999948],[-100.75410753,43.783822277000041],[-100.74053116200004,43.783444198999966],[-100.72799142700002,43.780348418999971],[-100.721274892,43.772570221000002],[-100.711035095,43.767155141999943],[-100.69807645999998,43.766749365999992],[-100.68453562000002,43.766810217999961],[-100.67164040799997,43.767291717999989],[-100.66181535700002,43.767657685000003],[-100.66290247500001,43.774309929999994],[-100.65542256999998,43.781726824999971],[-100.64184720999998,43.781338065000057],[-100.62943778599998,43.780012445000011],[-100.61699763000001,43.778240582999992],[-100.60483847900004,43.780472619000015],[-100.60113039200002,43.789085751999934],[-100.59742133399999,43.797698652000022],[-100.58676605199997,43.803888789999924],[-100.573831918,43.803915201999942],[-100.55760966100001,43.800936945999958],[-100.55032761199999,43.793617223999995],[-100.55152394200002,43.784204869000021],[-100.55149158199998,43.774836978999978],[-100.54138847600001,43.780111132999998],[-100.530024545,43.784983811000004],[-100.51700242800001,43.783669277999962],[-100.518203341,43.774257087000009],[-100.51332402399999,43.765956197000015],[-100.50045818900003,43.766865139999965],[-100.48854703400004,43.763723287000019],[-100.47949528300001,43.757355113999957],[-100.46761705799997,43.754656285000024],[-100.45466242999998,43.754225347999999],[-100.44223187,43.752436077000034],[-100.42866384600001,43.752024224000031],[-100.41579957099999,43.752924500999939],[-100.40229114900001,43.75339995400001],[-100.38945592900001,43.754742609000026],[-100.37799632899998,43.758266463999917],[-100.38165934199998,43.767060752999996],[-100.37154384399997,43.772321284999997],[-100.36019306800002,43.768255683],[-100.35293659000001,43.760924123000009],[-100.346851028,43.752659255000076],[-100.343807416,43.74384245100002],[-100.33301858499999,43.738862690999966],[-100.32085714200002,43.741067328999989],[-100.309396257,43.744584992000021],[-100.29658991899998,43.746363267999953],[-100.28419412300002,43.74500342000001],[-100.27340961200002,43.74001853999998],[-100.26555203100003,43.732702531999983],[-100.26327809499998,43.726088252999972],[-100.25368704700003,43.729983331999989],[-100.24152459400001,43.732180304000003],[-100.23250108100001,43.725793990000049],[-100.22002490599999,43.723092318999996],[-100.20791949099998,43.72617634500002],[-100.19782479499997,43.731868352000042],[-100.18590616799997,43.728252435000051],[-100.17510361900003,43.722813805999998],[-100.16218536600002,43.722797781999979],[-100.15275725599997,43.729356095999997],[-100.14059156299999,43.731543274000011],[-100.12873195700001,43.728812241000035],[-100.11796187099998,43.723813859000025],[-100.10509893599999,43.724682288999972],[-100.09301552900001,43.728200374999986],[-100.08004108699998,43.727285536999972],[-100.06720447200001,43.728595246999966],[-100.054367345,43.72990363899995],[-100.04195236599999,43.728074623999987],[-100.031188988,43.723068779999984],[-100.018243579,43.722592726000009],[-100.00535250299998,43.723005726000032],[-99.99246126700001,43.723417398999992],[-99.982289320999996,43.717942542999943],[-99.970411905999981,43.714751264000022],[-99.958269637000001,43.717365997000002],[-99.945325878000006,43.716882405000007],[-99.934011065999982,43.712777897000045],[-99.921121389000007,43.713182238000002],[-99.911644261999982,43.719277275999971],[-99.898700471999973,43.718788868999965],[-99.890273288000003,43.711468250999971],[-99.890948638999987,43.702080244999955],[-99.890396565000003,43.692730244000039],[-99.879089319000002,43.688620614999984],[-99.867666380999992,43.692988634000017],[-99.856881660999989,43.697781919000001],[-99.859270302000027,43.707075244999977],[-99.867079656999977,43.714416960000001],[-99.856931330000009,43.719636348999948],[-99.845501549000005,43.724002126999991],[-99.833378546000006,43.727049939999958],[-99.822657047000007,43.722471419999991],[-99.814851686999987,43.715127033999941],[-99.805364458999989,43.721214009999969],[-99.800327372000027,43.729841279000048],[-99.792755753000009,43.737206934000014],[-99.779860448000022,43.737596724999982],[-99.767426227000001,43.735295310000005],[-99.756682572999978,43.730265969000001],[-99.744301171000018,43.728852719000002],[-99.736723403999974,43.736215000000051],[-99.741502490000016,43.744546212000003],[-99.753399533999982,43.748204254999976],[-99.763557096999989,43.75369740299999],[-99.762863062000022,43.763083917999978],[-99.756537599000012,43.770855295999937],[-99.744401859999982,43.773894266000006],[-99.732012517999976,43.772479904000036],[-99.724825682000017,43.765112220000006],[-99.724296659999993,43.755762467000004],[-99.717701553999987,43.747930676999992],[-99.708200630000022,43.754009967000016],[-99.702508947000013,43.762205783000041],[-99.698684050999987,43.770792074000013],[-99.694883155000014,43.779823345000018],[-99.686039945999994,43.786772946999932],[-99.673848303,43.788914583999961],[-99.663127841000005,43.784322889999984],[-99.663836317999994,43.774937260999977],[-99.670787479000012,43.767152622999973],[-99.679015359000005,43.760221908000027],[-99.686602334999975,43.752863408000024],[-99.690402811000013,43.743831985999982],[-99.680842083000016,43.737869529000015],[-99.669347871000014,43.741328603000007],[-99.660482382999987,43.747831597999962],[-99.654146309999987,43.755598001000003],[-99.652822306000019,43.765001782999988],[-99.647122781000022,43.773194934999971],[-99.641124842000011,43.764896225999998],[-99.638764886999979,43.755599647999915],[-99.626848354000003,43.751485521999967],[-99.619893654000009,43.759267924000056],[-99.617925807999995,43.76824378300001],[-99.618439825999985,43.777593785000029],[-99.610203403000014,43.784520325999971],[-99.598356458000012,43.781739388999995],[-99.592978340000002,43.773420853999951],[-99.592467968999983,43.764070683999968],[-99.592572018999988,43.754702755000025],[-99.589629365000008,43.745867971999999],[-99.577442164999979,43.74800038299999],[-99.577335973000004,43.757368401000015],[-99.576615356999994,43.766753807999969],[-99.576509018000024,43.776121536999959],[-99.567629679999982,43.782617589000012],[-99.554700138999976,43.782538945000006],[-99.547532058999991,43.775161234999992],[-99.547484059000013,43.774270735000009],[-99.538896255999987,43.756584807000038],[-99.535903739999981,43.517347933999964],[-99.32826792100002,43.51409321499991],[-99.327938571000004,43.527882926000039],[-99.341756654999983,43.537030699000027],[-99.363237996000009,43.551359754000011],[-99.376505276999978,43.564187483000033],[-99.381737239000017,43.575696325000109],[-99.383218500999988,43.588191769999987],[-99.381417544999991,43.602304480000051],[-99.378073841999992,43.61095539899997],[-99.376363373999993,43.618644811999992],[-99.379633387000013,43.624976690999986],[-99.389280912999993,43.636638718999961],[-99.394649054000013,43.646887511000038],[-99.399169422999989,43.652909599999994],[-99.40366540399998,43.658443018000035],[-99.412130386999991,43.659282425000029],[-99.420437237999977,43.657068464999995],[-99.430968701999973,43.653111502000044],[-99.438675330000024,43.65152416800003],[-99.454643799999999,43.650931330000006],[-99.465412825999977,43.651550622999991],[-99.47419245399999,43.654364311999956],[-99.481581788000028,43.658744695000003],[-99.485834479000005,43.663517783999993],[-99.490006785999995,43.670738676999974],[-99.494277038999996,43.675816649000062],[-99.499963367000021,43.679784868000006],[-99.507000775999984,43.681422135999981],[-99.50640570600001,43.689172613999972],[-99.502806710000016,43.695769633000026],[-99.491945559999991,43.702328904000005],[-99.479583889000025,43.709791552000006],[-99.451403038000038,43.72490055999998],[-99.438628223000023,43.732511828999961],[-99.442190290999974,43.745214138000001],[-99.450348034000001,43.760082163999982],[-99.459442190000004,43.772631110999988],[-99.465021558999979,43.786688239999968],[-99.465217325000026,43.787181349000001],[-99.458802374000015,43.795572843000002],[-99.447504992000006,43.801423774999982],[-99.426932104000002,43.803214515999997],[-99.415472460999979,43.804210499000014],[-99.377408404999983,43.807724581999963],[-99.362777026000003,43.819483228000024],[-99.361919757999999,43.820704869999993],[-99.351709083999992,43.835251374000023],[-99.35051572499998,43.848080720999974],[-99.356722108999975,43.866251143000007],[-99.359846092999987,43.875717502999947],[-99.368850569000017,43.881397145999955],[-99.381226062999986,43.88583944999997],[-99.392001142000026,43.889941788999955],[-99.395462307000003,43.89354044599996],[-99.518198541999993,43.894090332999994],[-99.522498614000042,44.027058180000004],[-100.35677120899999,44.025517783999987],[-100.34999669400003,44.286823678000019],[-100.36205297499998,44.29664390800005],[-100.36422657700003,44.307827941000049],[-100.07169273199997,44.306115433999999],[-100.07519607,44.308320042999988],[-100.09565274900001,44.31653671100004],[-100.11153719499998,44.321748760000006],[-100.14280513199998,44.324165048999966],[-100.17986865699999,44.329818815000031],[-100.20906792500001,44.337155619999955],[-100.22754983200002,44.339116828999956],[-100.25844480900003,44.347817658999965],[-100.28696189099998,44.350577742000013],[-100.306320938,44.357177622999963],[-100.31064460300001,44.358651047999963],[-100.33683601400003,44.362338404000006],[-100.36729676099998,44.364154896999992],[-100.38486542800001,44.370134353000026],[-100.40670676799999,44.391999979999994],[-100.41451812299999,44.401178240999997],[-100.41855928899997,44.420828415000017],[-100.41858838000002,44.440872292000051],[-100.42564206399999,44.450552945000055],[-100.44051904600002,44.457668588999951],[-100.46996855100002,44.467323948999976],[-100.49458935299998,44.472562333999946],[-100.51126482000002,44.470824800999999],[-100.53044003999997,44.462886862000033],[-100.54227812599999,44.458455599000004],[-100.55355863400001,44.454231424999939],[-100.576530134,44.454931475000002],[-100.59239094700001,44.456839742000014],[-100.60220851899999,44.463738380000002],[-100.62534291700001,44.474160298000029],[-100.62819811899999,44.481183386999994],[-100.628723525,44.488561832999956],[-100.62627319000001,44.496287364000011],[-100.61904776900002,44.502516286000009],[-100.60872624699999,44.507425451999985],[-100.59604113199998,44.511942074000018],[-100.59412744899998,44.512939710000026],[-100.58764577599999,44.517050653999981],[-100.58605774300003,44.517625950000046],[-100.57790329199997,44.524289672000016],[-100.57404761100003,44.531109661000002],[-100.56506588200001,44.53620504300001],[-100.55618293700002,44.542727731000056],[-100.55090919000003,44.548404564000016],[-100.54831395999997,44.554223766],[-100.55715168500001,44.556531419999949],[-100.571998382,44.558860873],[-100.58712856699998,44.560462602999962],[-100.601931175,44.566846288000029],[-100.62440028100004,44.577721230999998],[-100.63589060200002,44.579688342999958],[-100.65007050999998,44.586566420999986],[-100.66322919499999,44.597774989000044],[-100.66899217399998,44.608251968999951],[-100.67037802200002,44.618221415000029],[-100.67538800599999,44.632113193000031],[-100.68026954800001,44.63956787499999],[-100.68139323100002,44.650500590000028],[-100.67850662900003,44.656809424999999],[-100.67342307500002,44.665107276000001],[-100.66825250099998,44.672215172999955],[-100.66504123999999,44.68426040899999],[-100.65934733699999,44.707368855000055],[-100.65660160700003,44.729652527999953],[-100.65752882300001,44.738442055000036],[-100.88812274399999,44.739490858999972],[-100.88967395300001,44.800580748999991],[-100.90266079899999,44.800082088000011],[-100.91440907999998,44.803448246999963],[-100.92114191100001,44.811370834000023],[-100.93408915399999,44.810325105000047],[-100.93481165600002,44.809751665999983],[-100.94573087900001,44.802237283000053],[-100.95439773300001,44.795354804000041],[-100.96386826600002,44.788985796999967],[-100.975837282,44.785246059000002],[-100.98784687400001,44.782049060000048],[-101.00082923600002,44.781540392999972],[-101.01279473900001,44.777797132999979],[-101.02225695499999,44.771423570000081],[-101.03515221800001,44.769823616999972],[-101.046308115,44.775383529999964],[-101.05933123199998,44.775412781000014],[-101.07243969000001,44.776528440999975],[-101.08559137600002,44.778186612999974],[-101.09343379199998,44.770780967],[-101.10641305399997,44.770261545999951],[-101.11609109500002,44.776420384000026],[-101.12212523800002,44.784907268999987],[-101.13392533500001,44.788797151999987],[-101.14257035600002,44.781901726000051],[-101.15367746300001,44.777088379999995],[-101.16397601199998,44.771761120000001],[-101.163237783,44.762515715999989],[-101.16635945899998,44.753659294000002],[-101.17665323900002,44.748330763000013],[-101.18949643799999,44.746171271000001],[-101.20148819999999,44.742953924000005],[-101.213478771,44.73973542800001],[-101.22631903799999,44.737572189999973],[-101.23924652400001,44.736495360999989],[-101.24868039400002,44.730104503000035],[-101.25412147600002,44.721694873999951],[-101.26036808100002,44.713797227999976],[-101.27337887700003,44.713804631000009],[-101.285130675,44.717137209000001],[-101.28986864199999,44.716336031999994],[-101.297964068,44.714966660000016],[-101.30496732,44.707034979999975],[-101.31793208099998,44.706493969999997],[-101.32901173400001,44.710942120000055],[-101.34143881300002,44.713149897999955],[-101.3508592,44.706751189000002],[-101.35471505100003,44.697857139000021],[-101.35623765000003,44.688515253999945],[-101.36910808499999,44.686881286999956],[-101.38027828000003,44.692412862000012],[-101.39328478499999,44.69240802299997],[-101.40682662500001,44.689650240000006],[-101.41067378100001,44.680754201000013],[-101.42008262399997,44.674349969999973],[-101.43398458600002,44.675940063999974],[-101.44675908300002,44.673210505999975],[-101.450554023,44.663769119000023],[-101.45291822141158,44.653569267588445],[-101.45204590200001,44.645146986000015],[-101.45983033200002,44.637716936000004],[-101.47277993099999,44.637160096999985],[-101.485683268,44.636058066000011],[-101.48337752800001,44.626877849999993],[-101.481072439,44.617697427000003],[-101.48728139999997,44.609787083000008],[-101.49923313599999,44.606540884999987],[-101.51217617700001,44.605980003999967],[-101.516587641,44.605973935000002],[-101.52516533900001,44.605961696999998],[-101.53815449299998,44.605942063000001],[-101.550615112,44.608673768000024],[-101.56102587300001,44.614223580999905],[-101.57277434999997,44.617530260999999],[-101.58585953099998,44.618593479000033],[-101.59894514000003,44.61965534900002],[-101.611842841,44.618540490999976],[-101.62469291100001,44.616880480000063],[-101.63768421200001,44.616850684000013],[-101.650722906,44.617363394999963],[-101.66371429200001,44.617330940999985],[-101.676134746,44.619506463999997],[-101.68917427700001,44.620015231000025],[-101.70111777,44.616750139000004],[-101.70729980499999,44.608829063999984],[-101.71828723300001,44.603421183000044],[-101.73008981100003,44.607257219000068],[-101.736140272,44.615173871000032],[-101.749082939,44.614588896999997],[-101.76097409099998,44.610774347999978],[-101.760152667,44.601529689999985],[-101.752626636,44.59422674200006],[-101.74362845100001,44.587535920999969],[-101.75546670799997,44.583177854999981],[-101.76563655699999,44.577256269999971],[-101.77928381499999,44.576089795000009],[-101.79179736200001,44.579341846000005],[-101.804214828,44.581505021999988],[-101.81705262200001,44.579825465999996],[-101.826406674,44.573390023999991],[-101.82785849300001,44.564040374999955],[-101.83978470900001,44.560761914999979],[-101.85087505799999,44.565165862000008],[-101.86380671699999,44.564569159000023],[-101.873153941,44.558130089999992],[-101.88421759900001,44.553794989000004],[-101.89729495900002,44.554826296999956],[-101.91022413299999,44.554224859999948],[-101.91480427400002,44.545819785999953],[-101.91781298299998,44.536941537000011],[-101.92956555199999,44.540215730000014],[-101.94136908899998,44.544032614000017],[-101.953285897,44.54074338100002],[-101.95938001799999,44.532265123999942],[-101.994430115,44.526197781999997],[-101.99443154099998,44.52657164700004],[-101.99622872800001,44.994401306000022],[-101.99730599999999,45.471570000000071],[-102.01961180299998,46.016667736999963],[-102.02180635500002,46.075145717999973],[-102.03100896199999,46.075339172999975],[-102.03775150600001,46.075453017999997],[-102.044453487,46.075142487000008],[-102.05076952000002,46.073997694999996],[-102.05635409000001,46.071608811999972],[-102.05655119900001,46.071369957999984],[-102.05964329300002,46.067622683000067],[-102.06167308699997,46.06326905700007],[-102.06337770099998,46.058717501000025],[-102.06666579100001,46.054731069999981],[-102.070603232,46.051140195000002],[-102.07653031900003,46.049160180000001],[-102.08282276300002,46.047801741000015],[-102.08911493800002,46.04644299400001],[-102.09559092900002,46.046992133000018],[-102.09745719799999,46.047475003999985],[-102.10186492600002,46.048615303999973],[-102.10787573900001,46.05067647300001],[-102.11417093400001,46.052511053999979],[-102.11933057300001,46.055250574000034],[-102.12536314300002,46.057522916999972],[-102.13161836799998,46.058932605999949],[-102.138157811,46.060115642000007],[-102.144491265,46.059178282999973],[-102.15039615000001,46.05698294299993],[-102.15493798599999,46.05336080299994],[-102.16051679999998,46.050967346999997],[-102.162578913,46.050520769999999],[-102.16680761700002,46.049604865000006],[-102.17348550399998,46.049075683000062],[-102.17909124699997,46.050266060000006],[-102.18004545000002,46.050468654999996],[-102.18551227,46.053191131999938],[-102.18984462100002,46.056819221000005],[-102.19507026299999,46.060191716999988],[-102.199666568,46.06338095199996],[-102.20341213299999,46.067249464999918],[-102.20800937000001,46.070438351000043],[-102.21289080399998,46.073400545999988],[-102.21951677800001,46.075427415999989],[-102.22385260099999,46.079054181999986],[-102.22984936099999,46.080897597999943],[-102.23532095500002,46.083617786999937],[-102.24050933000001,46.086564286000005],[-102.24598187300001,46.089283990999988],[-102.25145488700002,46.092003450000014],[-102.25751671799998,46.094481452000068],[-102.26355798999998,46.096747189999952],[-102.26929499699997,46.099027283000027],[-102.27479092999999,46.101957663],[-102.28083353699998,46.10422255999999],[-102.28687657400002,46.10648716599993],[-102.29311909900002,46.107676987999938],[-102.29990785500001,46.108201204000025],[-102.306434352,46.109163711000043],[-102.31296104500001,46.110125889000045],[-102.31957284700002,46.111935547000009],[-102.32585902199999,46.113547690999958],[-102.33216678800001,46.115371474000042],[-102.33790795900001,46.117648449000001],[-102.344393384,46.118185146999977],[-102.351205028,46.118918627999996],[-102.35795275599997,46.119015928000003],[-102.364267455,46.117856101000001],[-102.37166742599999,46.118346839999987],[-102.37821748699997,46.119517676000015],[-102.38422258000003,46.121353819000014],[-102.39024948899998,46.123401612000002],[-102.396014971,46.125887922000004],[-102.40090949,46.128842683000038],[-102.40523786099999,46.132251019999984],[-102.40932646499999,46.136309931000007],[-102.413372493,46.13994482999999],[-102.41831205099999,46.143322678000025],[-102.42320896199999,46.146276477000072],[-102.42782303400004,46.149457002000034],[-102.43385403899998,46.151502643000036],[-102.44016870899998,46.153321042000016],[-102.44681033799998,46.155335978999986],[-102.45312576399999,46.157153735999991],[-102.45889680099998,46.159637066000002],[-102.46549622499998,46.161227215999993],[-102.472052469,46.162393226000042],[-102.47884857999999,46.162908073999937],[-102.48512208400001,46.164300455999999],[-102.49148315399999,46.166540111999986],[-102.49804042900001,46.167704803999996],[-102.50466354999998,46.169504838000051],[-102.510698956,46.171546834000011],[-102.51671284499997,46.173376652999956],[-102.52307594799998,46.17561472299996],[-102.52741411800002,46.179018620999969],[-102.52998804600003,46.182480420000026],[-102.53062043699998,46.183330882999989],[-102.534698435,46.18717348200007],[-102.53882090600003,46.191439666000029],[-102.54322703100001,46.19547852300002],[-102.54885418600003,46.199456016999932],[-102.55406668900002,46.202389210999975],[-102.560411977,46.204413440000039],[-102.566930281,46.205150843999945],[-102.57359909600001,46.204389540000051],[-102.580245617,46.203416033999972],[-102.58479542200001,46.199992142000035],[-102.58710233699998,46.197165107000018],[-102.58805788900003,46.195994023000047],[-102.59127561000003,46.191572052999987],[-102.593418606,46.189958698000048],[-102.59582396299999,46.188147677000039],[-102.60214118500001,46.186976557999962],[-102.60848039500002,46.186016997000038],[-102.61638906100001,46.185403598999955],[-102.62073568599999,46.186869243000011],[-102.62242959700001,46.187440358000067],[-102.62903603799998,46.189022143999942],[-102.63533775600001,46.19061908800002],[-102.64140173700002,46.192866802000033],[-102.64574747100001,46.196266627999961],[-102.65183473899998,46.198725678999999],[-102.65731228300001,46.201215529000052],[-102.66307295799999,46.203477727000049],[-102.669139164,46.205724083999968],[-102.67542111,46.207107188000052],[-102.68177076000001,46.209125507999985],[-102.68829096399998,46.209856857999981],[-102.69483383699998,46.210799720000004],[-102.70148962399998,46.212801429000081],[-102.707512963,46.214622287000054],[-102.71377404999998,46.215791687000028],[-102.72005797700001,46.217172613999999],[-102.72582235900001,46.219431961000012],[-102.73184703300001,46.22125166900004],[-102.73711517300001,46.224601055999962],[-102.74203329199997,46.227542307000029],[-102.74695187200003,46.230483352000029],[-102.75102336800001,46.234106933999975],[-102.7556831,46.237486995000026],[-102.76032057899999,46.240655052000072],[-102.76662155399998,46.245014771000015],[-102.77013009400002,46.249092839000028],[-102.77309684099998,46.253837809000046],[-102.77688882000001,46.257687990999983],[-102.77950547,46.262024945000029],[-102.78031300599997,46.266668595999995],[-102.78170864100002,46.271068728999957],[-102.78340989899999,46.27545296100002],[-102.784546191,46.280292377000002],[-102.78657621999997,46.284872408999981],[-102.789003498,46.290283623999954],[-102.79131681799998,46.29463583900003],[-102.79513525700003,46.298696875999987],[-102.79862573000003,46.302561864000012],[-102.80277361100002,46.306818492999966],[-102.80774708700001,46.310180204999973],[-102.81067365199999,46.314500072999969],[-102.81418891499999,46.318576253999993],[-102.816527984,46.323139473000012],[-102.82032679299999,46.326987730999946],[-102.82582214899998,46.32946973100001],[-102.831883264,46.331496087999987],[-102.837708212,46.334173360000044],[-102.84296836300001,46.337305796999992],[-102.84740418199999,46.341332925000017],[-102.85000607500001,46.345455822000012],[-102.85467936399999,46.348831419000049],[-102.86050688400002,46.351507562999942],[-102.86631175299999,46.35397169699997],[-102.87244604199998,46.356631246000028],[-102.87860404499997,46.359502218999957],[-102.88464653800004,46.361314257999986],[-102.89071261499998,46.363337734000012],[-102.89538941500001,46.366711728999952],[-102.90004344800002,46.369873810000016],[-102.90206149900001,46.374239304000056],[-102.90377393099999,46.378620832999971],[-102.90638106199998,46.382742222000033],[-102.90990634000002,46.386815134000031],[-102.913738029,46.390871770999986],[-102.91782951,46.394488707000015],[-102.92305198499997,46.397194056000004],[-102.92891027399997,46.400078531999995],[-102.93524072100003,46.401660188000015],[-102.94180722900001,46.402590254000003],[-102.94851583100001,46.402021934000032],[-102.95555377300002,46.401648726000033],[-102.96261512199999,46.401486830000053]]]]},"properties":{"FID":182,"cartodb_id":183,"fid_1":757,"cess_no":"J32","type":"open_res","start_lega":" ","start_effe":-2550873600000,"end_legal":" ","end_effect":-1121558400000,"historical":"Sioux","present_na":"Assiniboine and Sioux Tribes of the Fort Peck Indian Reservation, Montana; Cheyenne River Sioux Tribe of the Cheyenne River Reservation, South Dakota; Crow Creek Sioux Tribe of the Crow Creek Reservation, South Dakota; Flandreau Santee Sioux Tribe of Sou","date_open":null}}]}